SchoolCode,Phase,School,AddressLine1,AddressLine2,AddressLine3,PostCode,X_REF,Y_REF,Telephone,Email,Website,Headteacher,NumberOfPupils,NumberOfPlacesAvailable,Area,AgeRangeMinimum,AgeRangeMaximum,Nearest,"Non Nearest","Priority 1A","Priority 1B","Priority 2","Priority 3","Priority 4","Priority 5",Allocated,"EHCP / Statement",LAC,"Nearest Placed","Non Nearest Placed",Placed,SEN,Siblings,Notes,"Better Access","Breakfast Club","Childrens Centre","Cycle Storage","Designated School Bus","Free Foundation Education","Fully integrated early education","Out of School Care","Parents Waiting Shelter","Reduction in Car Travel","Road Safety Training","Safe Route to School","School Crossing Patrol","School Travel Plan","SIF Required","Special Needs","Walking Initiative","Yellow Bus"
5400,Secondary,"Abbey Grange Church of England Academy","Butcher Hill",,Leeds,"LS16 5EA",425647,437660,"0113 275 7877",info@abbeygrangeacademy.co.uk,http://www.abbeygrangeschool.co.uk,"Ms C Kitson",1257,240,NW,11,18,,,,,,,,,,,,,,,,,,,,,1,1,,,,,1,1,,,1,1,,1,1
3030,Primary,"Aberford Church of England Primary School","School Lane",Aberford,Leeds,"LS25 3BU",443232,437054,"0113 281 3302",office@aberfordceprimary.org.uk,http://www.aberford.leeds.sch.uk,"Ms P Boulding",99,14,E,4,11,,,,,,,,,,,,,,,,,,,,,1,,,,1,1,1,1,,1,1,,,,
2416,Primary,"Adel Primary School","Tile Lane",Adel,Leeds,"LS16 8DY",428005,439325,"0113 230 1116",r.spinks@adelprimary.org.uk,http://www.adelprimary.org.uk,"Mrs S Parkinson",209,30,NW,3,11,0.582,0.63,1,,14,,12,3,,,,,,,,,,1,1,,1,,1,1,1,1,1,1,,1,1,,,1,1
3902,Primary,"Adel St John the Baptist Church of England Primary School (Voluntary Aided)","Long Causeway",Adel,Leeds,"LS16 8EX",427666,439696,"0113 214 1040",info@adel-st-john.leeds.sch.uk,http://www.adel-st-john.leeds.sch.uk,"Ms J Turner",209,30,NW,4,11,,,,,,,,,,,,,,,,,,1,,,1,,1,,1,1,1,1,,,1,1,,1,
3909,Primary,"All Saints Church of England Primary School (Voluntary Aided)","Cross Aysgarth Mount",,Leeds,"LS9 9AD",431762,433529,"0113 214 3056",david.pattison@allsaints-pri.leeds.sch.uk,http://www.allsaints-pri.leeds.sch.uk,"Mr D Pattison",210,30,E,3,11,,,,,,,,,,,,,,,,,,,1,1,1,,1,,1,,1,1,1,,1,1,,,
2507,Primary,"Allerton Bywater Primary School (Foundation)","Leeds Road","Allerton Bywater",Castleford,"WF10 2DR",441632,428057,"0113 336 8240",office@allertonbywater.leeds.sch.uk,http://www.allertonbywater.leeds.sch.uk,"Mr R Cairns",230,60,E,3,11,,,,,,,,,,,,,,,,,,1,1,,,,1,1,1,1,,1,,1,1,,,1,
3931,Primary,"Allerton Church of England Primary School","Lingfield Approach",,Leeds,"LS17 7HL",429837,439357.2,"0113 293 0699",denise.glazer@allertonceprimary.com,http://www.allertonceprimary.com,"Mrs H Stott",343,60,NE,3,11,,,,,,,,,,,,,,,,,,1,,1,1,,1,1,1,1,1,1,1,,1,,,1,
4040,Secondary,"Allerton Grange School","Talbot Avenue",,Leeds,"LS17 6SF",431591,438408,"0113 336 8585",agadmin@allertongrange.com,http://www.allertongrange.org,"Mr R Whittaker",1450,240,NE,11,18,,,,,,,,,240/240,,,,,6,,92,,,,,1,,,,,,1,,,,1,,,1,1
4032,Secondary,"Allerton High Business and Enterprise Specialist School","King Lane",,Leeds,"LS17 7AG",429500,439471,"0113 203 4770",info@allertonhigh.org.uk,http://www.allertonhigh.org.uk,"Mrs E Silson",1154,198,NE,11,18,1.072,1.073,,,,,,,,,,69,36,,7,86,,,,,1,,,,,,1,,,,1,,,1,
2436,Primary,"Alwoodley Primary School","Cranmer Rise",,Leeds,"LS17 5HX",429305,439464,"0113 268 6104",jane.langley@alwoodley.net,http://www.alwoodleyprimary.net/,"Miss J Langley",421,60,NE,3,11,0.382,,,,2,37,21,,,,,,,,,,"Not all nearest allocated",1,,1,1,,1,,1,1,,1,1,,1,,,1,
2484,Primary,"Armley Primary School","Salisbury Terrace",,Leeds,"LS12 2AY",427144,433927,"0113 263 9216",cooper.jennifer@armleyprimary.org.uk,http://www.armley-pri.leeds.sch.uk,"Ms C Burrill",177,30,W,3,11,0.286,0.472,1,,15,,12,2,,,,,,,,,,1,1,,,,1,,,1,,1,,,1,,,,
2401,Primary,"Ashfield Primary School","Weston Lane",Otley,Leeds,"LS21 2DF",419272,446259,"0194 346 3341",info@ashfieldprimary.co.uk,http://www.ashfieldprimary.co.uk,"Ms S Parker",212,30,NW,3,11,,,,,,,,,,,,,,,,,,1,1,,1,,1,1,1,1,,1,,1,1,,,,
2512,Primary,"Asquith Primary School","Horsfall Street",Morley,Leeds,"LS27 9QY",425775,428846,"0113 307 5550",hayley.walton@asquithprimary.org,http://www.asquithprimary.leeds.sch.uk/,"Ms G Austerfield",261,60,S,3,11,,,,,,,,,,,,,,,,,,1,1,,1,,,,1,1,,1,,,1,,,1,
2463,Primary,"Austhorpe Primary School (Foundation)","Austhorpe Lane",,Leeds,"LS15 8TP",437213,433658,"0113 264 0450",office@austhorpeprimary.org,http://www.austhorpe.leeds.sch.uk/,"Ms C Robinson",210,30,E,4,11,0.474,,2,,11,,17,,,,,,,,,,"Not all nearest allocated",1,,,1,,1,1,,,,1,,,1,,,,
2425,Primary,"Bankside Primary School","Shepherd Lane",,Leeds,"LS8 5AW",431551,435482,"0113 336 8383",school.office@banksideprimary.org,http://banksideprimary.org/,"Ms S Rutty",632,90,NE,3,11,0.423,0.16,1,,48,,39,2,,,,,,,,,,1,1,,1,,1,,,1,1,1,1,1,1,,,1,
2385,Primary,"Bardsey Primary School","Woodacre Lane",Bardsey,Leeds,"LS17 9DG",436392,443452,"0193 757 2612",office@bardseyprimary.org.uk,http://www.bardseyprimary.org.uk/,"Mrs S Clark",165,30,NE,4,11,,,,,,,,,,,,,,,,,,,,,,,,,1,,,1,,,1,,,,
3033,Primary,"Barwick in Elmet Church of England Primary School","Chapel Lane",Bawick-in-Elmet,Leeds,"LS15 4HL",440257,437237,"0113 281 2132",office@barwick-in-elmet.leeds.sch.uk,http://www.barwick-in-elmetschool.sch.uk,"Mrs S A Sanderson",158,30,N,3,11,0.423,8.275,,,15,,7,9,,,,,,,,,"Last child allocated was a twin.",1,,,1,,1,,1,,,1,,,1,,,,
2444,Primary,"Beechwood Primary School","Kentmere Avenue",,Leeds,"LS14 6QB",435141,435924,"0113 293 0250",office@beechwoodprimaryschool.co.uk,http://www.beechwoodprimaryschool.co.uk/,"Mr S Hilton",388,60,E,3,11,0.451,0.527,,,35,,9,16,,,,,,,,,,1,1,,,,1,,,1,,1,,1,1,,,,
2407,Primary,"Beecroft Primary School","Eden Way",,Leeds,"LS4 2TF",426699,435205,"0113 214 4562",info@beecroft.leeds.sch.uk,http://www.beecroft.leeds.sch.uk/,"Miss J A Turner",259,30,NW,3,11,0.733,1.051,,,10,,21,14,,,,,,,,,,1,1,,1,,1,,1,1,1,,1,1,1,,,1,
3913,Primary,"Beeston Hill St Lukes Church of England Primary School (Voluntary Aided)","Beeston Road",,Leeds,"LS11 8ND",429554,431876,"0113 214 5217",hayley.chalders@bsl.leeds.sch.uk,http://www.bsl.sch.uk,"Ms L Booth",337,45,S,3,11,,,,,,,,,,,,,,,,,,1,,,1,,1,,,1,,1,,1,1,1,,,
2470,Primary,"Beeston Primary School (Foundation)","Town Street",,Leeds,"LS11 8PN",428228,430736,"0113 271 6978",office@beestonprimary.org,http://www.beestonprimaryschool.co.uk,"Mr C Lees",541,90,S,3,11,0.304,0.676,,,47,,8,35,,,,,,,,,,,1,,1,,1,,1,1,1,1,,1,1,,,1,
4106,Secondary,"Benton Park School","Harrogate Road",Rawdon,Leeds,"LS19 6LX",420896,440158,"0113 250 2330",secretary@bentonpark.net,http://www.bentonpark.org.uk,"Mr S Dixon & Ms D Martin",1435,232,NW,11,18,,,,,,,,,231/232,,1,,,8,3,83,,,,,1,1,,,,,1,,,,1,,,,
2369,Primary,"Birchfield Primary School","Birchfield Avenue",Gildersome,Leeds,"LS27 7HU",424120,428882,"0113 253 3009",s.wharton@birchfieldprimary.org.uk,http://www.birchfieldprimary.org.uk,"Mr P Turner",203,30,S,3,11,,,,,,,,,,,,,,,,,,,,,1,,1,,,,,1,,,1,,,1,
3918,Primary,"Blackgates Primary School","Smithy Lane",Tingley,Wakefield,"WF3 1QQ",428742,425957,"0113 386 2480",info@blackgates.org.uk,http://www.blackgates-pri.leeds.sch.uk,"Mrs E Kay-Devanney",370,60,S,3,11,,,,,,,,,,,,,,,,,,1,,,1,,1,,1,1,,1,,1,1,,,1,
2408,Primary,"Blenheim Primary School","Lofthouse Place",,Leeds,"LS2 9EX",429900,434622,"0113 293 0808",office@blenheimprimaryschool.com,http://www.blenheimprimaryschool.com,"Mrs M Duffy",299,60,NW,3,11,,,,,,,,,,,,,,,,,,1,1,,1,,1,1,,1,1,1,1,,1,,,1,
4114,Secondary,"Boston Spa School (Foundation)","Clifford Moor Road","Boston Spa",Wetherby,"LS23 6RW",442024,445068,"0193 784 6636",info@bostonspa.leeds.sch.uk,http://www.bostonspa.leeds.sch.uk/,"Mr C Walsh",1790,300,NE,11,18,,,,,,,,,139/300,,1,,,1,,52,,,,,1,1,,,,,1,1,,,1,,,,
2433,Primary,"Bracken Edge Primary School","Newton Garth","Newton Road",Leeds,"LS7 4HE",431233,436133,"0113 262 3335",BEPS@brackenedge.leeds.sch.uk,http://www.brackenedge.leeds.sch.uk,"Ms J Harkness",401,60,NE,3,11,,,,,,,,,,,,,,,,,,,1,,1,,1,,1,1,1,1,,,1,,,1,
2329,Primary,"Bramham Primary School - Federated with Shadwell Primary School","Clifford Road",Bramham,Wetherby,"LS23 6JQ",442710,443623,"0193 784 3682",c.kitchen@bramhamprimary.org,http://www.bramhamprimary.co.uk,"Ms S Pyatt",86,20,NE,4,11,0.464,,,,10,,10,,,,,,,,,,"Not all nearest allocated",,,,1,,1,,1,1,,1,,,1,,,1,
2406,Primary,"Bramhope Primary School","Tredgold Crescent",Bramhope,Leeds,"LS16 9BR",425236,442933,"0113 267 1222",susan.hepworth@bramhopeprimaryschool.co.uk,http://www.bramhope.leeds.sch.uk/,"Mrs P Lawson",281,40,NW,4,11,0.592,,,,20,,20,,,,,,,,,,"Not all nearest allocated",1,,,1,,1,,1,1,1,1,,,1,,,,
2485,Primary,"Bramley Primary School","Fairfield Hill",,Leeds,"LS13 3DP",423633,434958,"0113 214 6169",headteacher@bramley.leeds.sch.uk,http://www.bramleyprimary.co.uk,"Mr D Harrison",232,40,W,3,11,,,,,,,,,,,,,,,,,,1,1,,1,,1,,,1,1,1,,,1,,,1,
3054,Primary,"Bramley St Peters Church of England Primary School","Hough Lane",,Leeds,"LS13 3NE",424448,434928,"0113 255 9680",info@bsp.leeds.sch.uk,http://www.bsp.leeds.sch.uk,"Mrs R Esplin",345,60,W,4,11,,,,,,,,,,,,,,,,,,1,1,,,,,,1,,1,1,,1,1,,,1,
4113,Secondary,"Brigshaw High School and Language College (Foundation)","Brigshaw Lane","Allerton Bywater",Castleford,"WF10 2HR",440903,429146,"0113 287 8900",office@brigshaw.com,http://www.brigshaw.com,"Ms C Lennon MA NPQH",1320,240,E,11,18,,,,,,,,,240/240,,5,,,3,3,78,,,,,1,1,,,,1,1,,1,1,1,,,,
2398,Primary,"Broadgate Primary School","North Broadgate Lane",Horsforth,Leeds,"LS18 5AF",424231,438392,"0113 258 2685",office@broadgateprimary.org.uk,http://www.broadgate.ik.org,"Ms E McLellan",250,30,NW,3,11,,,,,,,,,,,,,,,,,,,1,1,,,1,1,1,,1,1,,1,1,,,,
3915,Primary,"Brodetsky Primary School (Voluntary Aided)","The George Lyttleton Centre","Wentworth Avenue",Leeds,"LS17 7TN",430181,439856,"0113 293 0578",info@brodetsky.leeds.sch.uk,http://www.brodetsky.leeds.sch.uk,"Mr J Dunford",234,45,NE,3,11,,,,,,,,,,,,,,,,,,1,1,,1,,1,,1,,1,1,,,1,1,,1,
2007,Primary,"Brownhill Primary School (Academy)","Torre Road",,Leeds,"LS9 7DH",432331,434109,"0113 248 9539",secretary@brownhill.leeds.sch.uk,http://www.brownhillleeds.org.uk,"Mrs G Winterburn",389,60,E,3,11,,,,,,,,,,,,,,,,,,1,1,,,,1,,1,,,1,,,1,,,1,
2409,Primary,"Brudenell Primary School (Foundation)","Welton Place",,Leeds,"LS6 1EW",428309,435358,"0113 278 5168",info@brudenell.leeds.sch.uk,http://www.brudenell.leeds.sch.uk,"Mrs J Davies (Acting)",218,40,NW,3,11,,,,,,,,,,,,,,,,,,1,1,1,1,,1,,,1,1,1,,,1,,,1,
4109,Secondary,"Bruntcliffe School","Bruntcliffe Lane",Morley,Leeds,"LS27 0LZ",425212,427723,"0113 252 3225",info@bruntcliffe.net,http://www.bruntcliffe.net,"Mrs H Scott",1300,240,S,11,18,,,,,,,,,72/240,,,,,7,,26,,,,,1,1,,,,,,,,,1,,,,
3052,Primary,"Burley St Matthias Church of England Primary School","Burley Road",,Leeds,"LS4 2HY",427664,434714,"0113 336 7401",jmayhall@burleystmatthias.co.uk,http://www.burleystmatthias.co.uk,"Ms K Cameron & Ms S Collier",169,30,NW,4,11,,,,,,,,,,,,,,,,,,,1,,1,,,,1,,,1,,1,1,,,,
3046,Primary,"Calverley Church of England Primary School",Towngate,Calverley,Leeds,"LS28 5NF",420825,437223,"0113 257 5127",sewell.js@calverleyce.co.uk,http://www.calverleycofeprimaryschool.co.uk/,"Mrs J Putsman",319,60,W,4,11,0.735,0.988,1,,28,,3,28,,,,,,,,,,,,,,,,,1,1,1,,,1,1,,,,
2301,Primary,"Calverley Parkside Primary School","Victoria Street",Calverley,Leeds,"LS28 5PQ",420612,436888,"0113 257 0884",headteacher@calverleyparkside.leeds.sch.uk,http://www.calverleyparkside.leeds.sch.uk/,"Mrs A Duncalf",204,30,W,3,11,0.273,,,,12,,18,,,,,,,,,,"Not all nearest allocated",,,,,,1,,1,1,1,1,,,1,,,1,
4751,Secondary,"Cardinal Heenan Catholic High School","Tongue Lane",,Leeds,"LS6 4QE",429035,438145,"0113 887 3240",info@cardinalheenan.com,http://www.cardinalheenan.com,"Miss E A Cox",900,180,NE,11,16,,,,,,,,,,,,,,,,,,,,,1,1,,,,,,,,,1,1,,,1
2308,Primary,"Carlton Primary School","New Road",,Carlton,"WF3 3RE",433635,427168,"0113 214 6316",enquiries@carltonprimaryschool.co.uk,http://www.carltonprimaryschool.co.uk,"Mrs J Cooper",315,45,S,3,11,,,,,,,,,,,,,,,,,,,1,,,,1,,,1,,1,,1,1,,,1,
4041,"Secondary (Through School)","Carr Manor Community School (Primary)","Carr Manor Road",,Leeds,"LS17 5DJ",429425,437542,"0113 336 8401",office@carrmanor.org.uk,http://www.carrmanor.org.uk,"Mr S Flowers",315,30,NE,4,11,0.511,,1,,39,,20,,,,,,,,,,"Not all nearest allocated",,,,,,,,,,,,,,1,,,,
4041,"Secondary (Through School)","Carr Manor Community School (Secondary)","Carr Manor Road",,Leeds,"LS17 5DJ",429425,437542,"0113 336 8400",info@carrmanor.org.uk,http://www.carrmanor.org.uk,"Mr S Flowers",900,180,NE,4,18,,,,,,,,,180/180,,3,,,7,1,55,,,,,1,1,,,,1,,1,,,1,,,1,1
2437,Primary,"Carr Manor Primary School","Carr Manor Road",,Leeds,"LS17 5DJ",429618,437771,"0113 268 9160",office@carrmanorprimary.org.uk,http://www.carrmanor-pri.leeds.sch.uk,"Mrs D Kenny",424,60,NE,3,11,,,,,,,,,,,,,,,,,,,1,,1,,1,1,1,1,1,1,,1,1,,,1,
2486,Primary,"Castleton Primary School","Green Lane",,Leeds,"LS12 1JZ",428038,433009,"0113 263 7756",headteacher@castletonleeds.org.uk,http://www.castleton.leeds.sch.uk,"Mrs J Norfolk",213,30,W,3,11,0.218,0.494,,,11,,11,8,,,,,,,,,,1,1,,1,,1,,1,1,1,1,1,1,1,,,,1
2427,Primary,"Chapel Allerton Primary School","Harrogate Road",,Leeds,"LS7 3PD",430560,436844,"0113 262 4851",c.easton@chapelallertonprimary.co.uk,http://www.chapelallertonprimary.co.uk,"Mr N Sykes",420,60,NE,3,11,0.374,0.926,1,,22,,12,25,,,,,,,,,,1,1,,1,,1,,1,1,,1,1,,1,,,1,
3055,Primary,"Christ Church Upper Armley Church of England Primary School","Theaker Lane",,Leeds,"LS12 3NU",426647,433747,"0113 263 8606",admin@ccuaprimary.org.uk,http://www.christchurchupperarmley.ik.org/,"Ms A OConnor",180,30,W,4,11,0.307,0.516,,,13,,10,7,,,,,,,,,,,1,,,,,,,1,,1,1,,1,,,1,
3369,Primary,"Christ the King Catholic Primary School Bramley (Voluntary Aided)","Kings Approach",,Leeds,"LS13 2DX",425250,434487,"0113 257 9230",office@ctkcps.org.uk,http://www.christtheking.leeds.sch.uk,"Mr N Ryan",200,30,W,4,11,,,,,,,,,,,,,,,,,,1,,,,,1,,,1,1,1,1,,1,1,,,
2286,Primary,"Churwell Primary School","Westwood Side",Morley,Leeds,"LS27 9HR",426713,429206,"0113 252 7437",office@churwellprimary.org.uk,http://www.churwell.schooljotter2.com,"Mr C Summers",405,60,S,3,11,0.439,0.611,2,,18,,28,12,,,,,,,,,,1,1,,1,,1,,1,1,1,1,,1,1,,,1,
4061,Secondary,"City of Leeds School","Bedford Field","Woodhouse Cliff",Leeds,"LS6 2LG",429161,435796,"0113 336 8310",info@cityofleeds.org,http://www.cityofleeds.org/,"Ms G Sale",318,150,NW,11,18,,,,,,,,,52/150,,,,,17,1,12,,,,,1,,,,,,,,,,1,,,,
2482,Primary,"Clapgate Primary School","Cranmore Drive",,Leeds,"LS10 4AW",431758,428488,"0113 271 6700",beltm@westwoodandclapgate.org,http://www.clapgate.leeds.sch.uk,"Mrs Z Adams",316,60,S,3,11,,,,,,,,,,,,,,,,,,1,1,,1,,1,,1,1,1,1,,,1,,,1,
2487,Primary,"Cobden Primary School","Cobden Road",,Leeds,"LS12 5LA",425752,431890,"0113 214 3567",office@cobden.leeds.sch.uk,http://www.cobden.leeds.sch.uk,"Mrs P Head",200,30,W,3,11,0.688,0.319,,,13,,12,4,,,,,,,1,,,1,1,,1,,1,,1,1,,1,,,1,,,,1
4047,Secondary,"Cockburn School (Foundation)",Parkside,"Gipsy Lane",Leeds,"LS11 5TT",429194,429451,"0113 271 9962",info@cockburnschool.org,http://www.cockburnschool.org/,"Mr D Gurney",1098,210,S,11,16,,,,,,,,,,,,,,,,,,,,,1,1,,,,,1,,1,,1,,,1,1
3357,Primary,"Collingham Lady Elizabeth Hastings Church of England Primary School (Voluntary Aided)","Linton Road",,Leeds,"LS22 5BS",438365,446015,"0193 757 3117",office@collinghamschool.org,http://www.collinghamschool.com,"Mrs B Robertson",210,30,NE,4,11,,,,,,,,,,,,,,,,,,1,,,1,,,,1,,1,1,,,1,,,1,
2453,Primary,"Colton Primary School (Foundation)","School Lane",,Leeds,"LS15 9AL",437173,433005,"0113 264 7514",colton.school@colton.org.uk,http://www.colton.leeds.sch.uk,"Mrs S Harrison",206,30,E,3,11,0.349,,,,16,,14,,,,,,,,,,"Not all nearest allocated",1,1,,1,,1,,1,1,,1,1,1,1,,,1,
3903,Primary,"Cookridge Holy Trinity C of E Primary School (Voluntary Aided)","Green Lane",,Leeds,"LS16 7EZ",424885,440313.8,"0113 225 3040",info@holytrinity.leeds.sch.uk,http://www.holytrinity.leeds.sch.uk,"Mrs C Harbrow",415,60,NW,4,11,,,,,,,,,,,,,,,,,,,,,1,,,,1,1,1,1,,1,1,1,,1,
2418,Primary,"Cookridge Primary School (Foundation)","Tinshill Drive",,Leeds,"LS16 7DH",425402,439981,"0113 386 2500",info@cookridge.leeds.sch.uk,http://www.cookridgeprimaryschool.org.uk,"Mrs S Bailey",319,45,NW,4,11,,,,,,,,,,,,,,,,,,1,,,1,,1,,1,1,1,1,,,1,,,1,
4065,Secondary,"Co-operative Academy of Leeds","Stoney Rock Lane",,Leeds,"LS9 7HD",431563,434080,"0113 380 7940",info@cal.coop,http://www.cal.coop,"Ms E McCarthy",965,180,E,11,18,,,,,,,,,,,,,,,,,,,,,1,,,,,,1,,1,,1,,,,
4752,Secondary,"Corpus Christi Catholic College (Voluntary Aided)","Neville Road",,Leeds,"LS9 0TT",434033,433556,"0113 200 9010",info@corpuschristicollege.leeds.sch.uk,http://www.corpuschristicollege.leeds.sch.uk/,"Mr S Mort",944,184,E,11,16,,,,,,,,,,,,,,,,,,,,,1,1,,,,,,,,,1,1,,,1
3370,Primary,"Corpus Christi Catholic Primary School (Voluntary Aided)","Halton Moor Avenue",,Leeds,"LS9 0HA",433947,433538,"0113 248 3095",j.midgley@corpusprimaryleeds.org,http://leeds.schooljotter.com/corpusleeds,"Mrs W M Walsh",362,45,E,4,11,,,,,,,,,,,,,,,,,,1,1,,,,,,1,,1,1,1,,1,1,,1,
2006,Primary,"Cottingley Primary School Academy","Dulverton Grove",,Leeds,"LS11 0HU",427480,430316,"0113 270 9503",office@cottingleyprimaryacademy.org,http://www.cottingley.leeds.sch.uk,"Mrs L A White",244,45,S,3,11,0.205,,,,12,,33,,,,,,,,,,"Not all nearest allocated",1,1,1,1,,1,1,1,1,1,1,,,1,,1,1,
4107,Secondary,"Crawshaw School (Academy)","Robin Lane",Pudsey,Leeds,"LS28 9HU",422722,432964,"0113 336 8540",info@crawshawacademy.org.uk,http://www.crawshawacademy.org.uk,"Mr Adam Daly",1115,195,W,11,18,,,,,,,,,150/195,,2,,,12,,48,,,,,1,1,,,,,,,,,1,,,,1
2458,Primary,"Cross Gates Primary School","Poole Crescent",,Leeds,"LS15 7NB",435535,434590,"0113 264 5763",admin@crossgates.leeds.sch.uk,http://www.leeds.gov.uk/,"Mrs R Hamer",207,30,E,3,11,0.21,0.788,1,,9,,9,11,,,,,,,,,,1,1,,,,1,,,1,1,1,,,1,,,,1
2347,Primary,"Crossley Street Primary School","Crossley Street",Wetherby,Leeds,"LS22 6RT",440189,448438,"0193 752 0301",linda.mann@crossleystreet.leeds.sch.uk,http://www.crossleystreet.leeds.sch.uk,"Mrs S Clynes",211,30,NE,3,11,0.63,,,,15,,15,,,,,,,,,,"Not all nearest allocated",1,,,1,,1,,,1,1,1,1,1,1,,,1,
6905,Secondary,"David Young Community Academy (DYCA)","Bishops Way",Seacroft,Leeds,"LS14 6NU",434527,436067,"0113 273 9100",info@dyca.org.uk,http://www.dyca.org.uk,"Ms R McMullen BA(Hons) NPQH",900,180,E,11,18,,,,,,,,,,,,,,,,,,,,,1,1,,,,,,,1,,1,,,1,1
2400,Primary,"Deighton Gates Primary School","Deighton Road",Wetherby,Leeds,"LS22 7Xl",440193,449571,"0193 758 4359",staff@deightongates.leeds.sch.uk,http://www.deightongates.leeds.sch.uk,"Mrs C Harrison",210,30,NE,4,11,,,,,,,,,,,,,,,,,,,,,1,,1,1,1,1,1,1,1,,1,,,1,
3921,Primary,"Drighlington Primary School","Moorland Road",,Drighlington,"BD11 1JY",422422,428610,"0113 386 2390",info@drighlingtonprimary.org.uk,http://www.drighlingtonprimary.co.uk,"Ms S Jackson",370,60,S,3,11,,,,,,,,,,,,,,,,,,,1,,,,1,,,1,,1,1,1,1,,,,
4000,Secondary,"E-ACT Leeds East Academy","South Parkway",Seacroft,Leeds,"LS14 6TY",435573,435612,"0113 273 1964",info@leedseastacademy.org.uk,http://www.leedseastacademy.org.uk,"Kenwyn Paddy (Principal) Annette Hall (Executive Principal)",1100,180,E,11,18,,,,,,,,,173/180,,3,,,57,,44,,,,,,1,,,,,1,,1,,1,,,1,1
2504,Primary,"East Ardsley Primary School","Fall Lane","East Ardsley",Wakefield,"WF3 2BA",430766,425516,"0113 887 9023",office@eastardsley.org.uk,http://www.eastardsley.leeds.sch.uk,"Mrs J Wedlinscky",341,45,S,3,11,,,,,,,,,,,,,,,,,,1,,,1,,1,,,1,1,1,,1,1,,,1,
2395,Primary,"East Garforth Primary School (Foundation)","Aberford Road",Garforth,Leeds,"LS25 2HF",441726,433713,"0113 212 7100",info@egpa.org.uk,http://egpa.org.uk,"Mr D Eaton",342,40,E,3,11,,,,,,,,,,,,,,,,,,1,,,,,,1,1,1,1,1,1,,1,,,1,
2446,Primary,"Ebor Gardens Primary School","Rigton Drive",,Leeds,"LS9 7PY",431549,433879.8,"0113 248 2750",business.manager@eborgardensprimary.co.uk,http://www.eborgardensprimary.co.uk,"Mrs K Depledge",366,60,E,3,11,0.517,2.264,,,28,,14,18,,,,,,,,,,1,,,,,1,,1,,,,,,,,,,
4026,Secondary,"Farnley Academy","Chapel Lane",,Leeds,"LS12 5EU",425136,431969,"0113 263 0741",info@farnley.leeds.sch.uk,http://www.farnley.leeds.sch.uk,"Executive Principal Mr J. A. Townsley Principal Mr J. Ziltener",830,210,W,11,18,,,,,,,,,,,4,79,65,,,94,,,,,1,,,,,,,,1,,1,,,1,
2505,Primary,"Farsley Farfield Primary School","Cote Lane",Farsley,Leeds,"LS28 5ED",421048,434857,"0113 205 8130",office@farsleyfarfield.org.uk,http://www.farsleyfarfield.org.uk,"Mr P Harris",420,60,W,3,11,0.37,0.916,,,32,,12,15,,1,,,,,,,,1,,,1,,1,1,1,1,1,1,,,1,,,1,
2338,Junior,"Farsley Springbank Junior School","Wesley Street",Farsley,Leeds,"LS28 5LE",421900,435239,"0113 255 8719",Info@farsleyspringbank.co.uk,http://www.farsleyspringbankjuniorschool.co.uk/,"Miss S Percival",233,60,W,7,11,0.4,0.751,,,21,,18,21,,,,,,,,,,1,,,,,1,1,1,1,1,1,1,,1,,,,
2302,Infant,"Farsley Westroyd Infant School","Frances Street",Farsley,Leeds,"LS28 5BH",421708,434817,"0113 255 1601",ruth.hall@westroyd.leeds.sch.uk,http://www.westroydinfantschool.co.uk,"Ms J Todd",181,60,W,4,7,0.396,1.189,,,3,,16,11,,,,,,,,,,,,,,,1,,,1,1,,,1,1,,,1,
2469,Primary,"Fieldhead Carr Primary School","Naburn Approach",,Leeds,"LS14 2EG",435846,438065,"0113 293 0226",fhcschool@fieldheadcarr.leeds.sch.uk,http://www.fieldheadcarr.leeds.sch.uk,"Mr N Edensor",204,30,E,3,11,0.637,0.719,,,12,,11,7,,,,,,,,,,1,,,1,,1,,1,1,1,1,1,,1,,,1,
2492,Primary,"Five Lanes Primary School","Stradbroke Way",,Leeds,"LS12 4NB",427161,432757,"0113 279 0122",info@fivelanesprimary.co.uk,http://www.fivelanes.leeds.sch.uk,"Mrs J Fiddes",410,60,W,3,11,0.515,0.45,1,,27,,26,6,,,,,,,,,,,,,1,,1,,1,1,1,1,1,1,1,,,1,
3926,Primary,"Fountain Primary School","Fountain Street",Morley,Leeds,"LS27 0AW",425820,426999,"0113 886 8335",info@fountainprimary.leeds.sch.uk,http://www.fountainprimary.leeds.sch.uk,"Mr A Eastwood",437,60,S,3,11,1.098,0.911,,,18,,37,5,,,,,,,,,,1,,,1,,1,,1,1,1,1,,1,1,,,,1
4112,Secondary,"Garforth Academy","Lidgett Lane",Garforth,Leeds,"LS25 1LJ",440183,432482,"0113 212 7127",info@garforthacademy.org.uk,http://www.garforthacademy.org.uk,"Mr P West",1956,300,E,11,18,,,,,,,,,,,,,,,,,,,,,1,1,,,,,,,,,1,,,,1
2336,Primary,"Gildersome Primary School","Town Street",Gildersome,Leeds,"LS27 7AB",424463,429108,"0113 201 2450",Head@gildersomeprimary.org.uk,http://www.gildersomeprimary.org.uk,"Mrs C Hoyle",242,60,S,3,11,,,,,,,,,,,,,,,,,,1,,1,1,,,,1,1,,1,,1,1,,,1,
2428,Primary,"Gledhow Primary School","Lidgett Lane",,Leeds,"LS8 1PL",431619,437508,"0113 293 0392",info@gledhowschool.org,http://www.gledhow.leeds.sch.uk,"Mr S Archer",424,60,NE,3,11,0.395,,1,,26,,31,,,1,,,,,,,,,,,1,,1,1,1,1,1,1,,1,1,,1,1,1
2447,Primary,"Grange Farm Primary School","Barncroft Rise",,Leeds,"LS14 1AX",434807,436965,"0113 293 0120",admin.manager@grangefarm.leeds.sch.uk,http://www.grangefarm.leeds.sch.uk/,"Ms K Atkins",415,60,E,3,11,,,,,,,,,,,,,,,,,,1,,,,,1,,,,,,,,,,,,
3925,Primary,"Great Preston Church of England Primary School","Preston Lane","Great Preston",Leeds,"LS26 8AR",440405,429162,"0113 214 6816",simpsod08@brigshawtrust.com,http://www.greatpreston-pri.leeds.sch.uk,"Ms D Simpson",209,30,E,4,11,0.536,0.646,1,,18,,10,1,,,,,,,,,,1,,1,1,,1,,,1,,1,,1,1,,,1,
2396,Primary,"Green Lane Primary Academy","Ribblesdale Avenue",Garforth,Leeds,"LS25 2JX",441808,432720,"0113 212 7107",info@glpa.org.uk,http://www.glpa.org.uk,"Mrs T Prince",348,50,E,3,11,,,,,,,,,,,,,,,,,,1,,,1,,1,,1,,,1,,,1,,,1,
2499,Primary,"Greenhill Primary School","Gamble Hill Drive",,Leeds,"LS13 4JJ",424994,433676,"0113 263 5271",info@greenhill.leeds.sch.uk,http://www.greenhill.leeds.sch.uk/,"Mrs A M Reeve",348,60,W,3,11,0.355,0.52,3,,28,,19,10,,,,,,,,,,,,,1,,1,,1,1,,1,,1,1,,,,
2473,Primary,"Greenmount Primary School","Lodge Lane",,Leeds,"LS11 6BA",429549,431303,"0113 276 0771",info@greenmountprimary.co.uk,http://www.greenmountprimary.co.uk,"Ms J Wilde",393,60,S,3,11,0.343,0.268,,,37,,15,8,,,,,,,,,,1,,,1,,1,,,1,1,1,,,1,,,1,
2303,Primary,"Greenside Primary School",Chapeltown,Pudsey,Leeds,"LS28 8NZ",421964,432904,"0113 257 4509",info@greenmountprimary.co.uk,http://www.greenside.leeds.sch.uk,"Mrs C Morgan",316,45,W,4,11,0.345,0.33,1,,24,,13,7,,,,,,,,,,1,,,,,,,1,1,1,1,1,1,1,,,1,
2448,Primary,"Grimes Dyke Primary School","Stanks Drive",,Leeds,"LS14 5BY",436557,436704,"0113 294 1066",info@grimesdyke.leeds.sch.uk???????,http://www.grimesdyke.leeds.sch.uk,"Miss L Hill",206,30,E,3,11,,,,,,,,,,,,,,,,,,,1,,,,1,,,1,1,1,1,1,1,,1,,
2270,Infant,"Guiseley Infant and Nursery School","Oxford Road",Guiseley,Leeds,"LS20 9DA",419097,442252,"0194 387 3359",office@guiseleyinfants.org.uk,http://www.guiseleyinfants.org.uk/,"Mrs M G Bell",270,90,NW,3,7,0.871,0.47,,,28,,30,2,,,,,,,,,,1,1,1,,,1,1,1,1,1,1,1,1,1,,,1,
4108,Secondary,"Guiseley School","Fieldhead Road",Guiseley,Leeds,"LS20 8DT",418677,441738,"0194 387 2315",info@guiseleyschool.org.uk,http://www.guiseleyschool.org.uk,"Mr P Morrissey",1309,225,NW,11,18,,,,,,,,,,,2,,,,,104,,,,,1,,,,,,1,,,,1,,,,1
2449,Primary,"Harehills Primary School","Darfield Road",,Leeds,"LS8 5DQ",432097,435211,"0113 235 0539",info@harehills.leeds.sch.uk,http://www.harehills.leeds.sch.uk/,"Mrs M Broughton",630,90,E,3,11,0.267,1.36,,,47,,16,27,,,,,,,,,,1,1,,1,1,1,,,,,1,1,1,1,,,1,
3037,Primary,"Harewood Church of England Primary School","Harrogate Road",Harewood,Leeds,"LS17 9LH",432200,445085,"0113 288 6394",office@harewood.leeds.sch.uk,http://www.harewood-leeds.frogprimary.com,"Mr R Madeley",111,15,NE,4,11,2.863,2.977,,,6,,3,6,,,,,,,,,,,,,,,,,1,1,,1,,,1,,,,
3351,Primary,"Hawksworth Church of England Primary School (Voluntary Aided)","Main Street",Guiseley,Leeds,"LS20 8NX",416508,441784,"0194 387 2808",admin@hawksworthceprimary.org,http://www.hawksworthceprimary.org/,"Mr Norris",100,15,NW,4,11,,,,,,,,,,,,,,,,,,,,,,,,,,1,,1,,,1,1,,,
2417,Primary,"Hawksworth Wood Primary School","Cragside Walk",,Leeds,"LS5 3QE",425247,437304,"0113 258 3984",a.padden@hwood.org.uk,http://www.hawksworthwood.leeds.sch.uk,"Ms A Padden",211,30,NW,4,11,0.226,,,,17,,13,,,,,,,,,,"Not all nearest allocated",1,1,1,,,1,1,,1,,,,,1,,1,,
2438,Primary,"Highfield Primary School","Sandringham Green",,Leeds,"LS17 8DJ",431232,439574,"0113 293 0155",admin@highfield.leeds.sch.uk,http://www.highfield-primary.co.uk,"Mrs J Colley",393,60,NE,4,11,0.29,,1,,34,,25,,,,,,,,,,"Not all nearest allocated",,,,,,,,1,1,,1,,,1,,,,
2292,Primary,"Hill Top Primary School","Batley Road","West Ardsley",Leeds,"WF3 1HD",428040,424516,"0113 307 4750",office@hilltopprimary.org.uk,http://www.hilltopprimary.org.uk,"Ms Hyans",210,30,S,3,11,0.771,1.258,,,8,,13,9,,,,,,,,,,1,,,1,,1,,1,1,1,1,1,1,1,,,1,
2014,Primary,"Hillcrest Community Primary School","Cowper Street",,Leeds,"LS7 4DR",431273,435505,"0113 262 4080",,http://www.hillcrest.leeds.sch.uk,"Jane Kent",402,60,NE,3,11,,,,,,,,,,,,,,,,,,,1,,1,,1,,,1,1,1,,,1,,,,
3922,Primary,"Hollybush Primary School","Broad Lane",,Leeds,"LS13 2JJ",425330,435352,"0113 386 2470",school@hollybushprimary.org,http://www.hollybushprimaryschool.org.uk/,"Mr D Kenny",385,60,W,3,11,0.407,1.056,,,25,,25,10,,,,,,,,,,,,1,1,,1,1,,1,,1,,1,1,,,,
3372,Primary,"Holy Family Catholic Primary School (Voluntary Aided)","Parliament Road",,Leeds,"LS12 2LH",427711,433408,"0113 279 7572",office@holyfamilyleeds.co.uk,http://www.holyfamilyleeds.co.uk,"Mr P McQuillen-Strong",201,30,W,3,11,,,,,,,,,,,,,,,,,,,,,1,1,1,1,1,1,,1,,,1,1,,1,
3380,Primary,"Holy Name Catholic Primary School (Voluntary Aided)","Otley Old Road",,Leeds,"LS16 6NF",426123,439068,"0113 293 6444",holyname@holynameleeds.co.uk,http://www.holynameprimary.org.uk,"Mr A Duffy",203,30,NW,4,11,,,,,,,,,,,,,,,,,,1,,,1,,,,1,1,,1,,,1,1,,1,1
3383,Primary,"Holy Rosary and St Annes Catholic Primary School (Voluntary Aided)","Leopold Street",,Leeds,"LS7 4AW",430819,435196,"0113 336 8433",secretary@st-annes.leeds.sch.uk,http://www.holyrosaryandstannes.org.uk,"Mrs E McDonagh-Smith",207,30,NE,3,11,,,,,,,,,,,,,,,,,,1,1,,1,,1,,1,,1,1,,,1,1,,1,1
2283,Primary,"Horsforth Featherbank Primary School",Featherbank,Horsforth,Leeds,"LS18 4QP",423713,437497,"0113 214 4811",info@featherbank.leeds.sch.uk,http://www.featherbank.leeds.sch.uk,"Mrs K Rhodes",154,30,NW,4,11,0.332,,,,9,,21,,,,,,,,,,"Not all nearest allocated",1,,,1,,,,1,1,,,,,1,,,1,
2363,Primary,"Horsforth Newlaithes Primary School","Victoria Crescent",Horsforth,Leeds,"LS18 4PT",423255,436973,"0113 258 8645",headteacher@stf.newlaithes.co.uk,http://www.newlaithes.co.uk,"Mrs J Blacoe",387,60,NW,4,11,0.692,0.782,2,,31,,12,15,,,,,,,,,,,,,,,1,,1,1,,1,1,,1,,,1,
4115,Secondary,"Horsforth School (Academy)","Lee Lane East",Horsforth,Leeds,"LS18 5RF",423723,438495,"0113 226 5454",info@horsforthschool.org,http://www.horsforthschool.org,"Mr S Jex MEd BSc (Econ)",1412,225,NW,11,18,,,,,,,,,,,,,,,,,,,,,,,,,,,,,,,,,,,
3038,Primary,"Horsforth St Margarets Church of England Primary School","Town Street",Horsforth,Leeds,"LS18 5BL",423837,438210,"0113 386 2520",stringm01@leedslearning.net,http://www.stmargarets.leeds.sch.uk/,"Mr A M Wiley",409,60,NW,3,11,0.23,0.461,,,37,,7,16,,,,,,,,,,1,,,1,,1,1,1,1,1,1,,,1,,,1,
2334,Primary,"Horsforth West End Primary School","West End Lane",Horsforth,Leeds,"LS18 5JP",422906,438391,"0113 258 2819",westendschool@leedslearning.net,http://www.westendprimary.org.uk,"Mrs L A Wadkin",253,30,NW,3,11,0.584,0.44,,,14,,14,1,,1,,,,,,,,1,,,1,,1,1,1,1,1,1,,,1,,,1,
2450,Primary,"Hovingham Primary School","Hovingham Avenue",,Leeds,"LS8 3QY",432405,435642,"0113 248 9537",kim.andrews@hovingham.org,http://www.hovingham.leeds.sch.uk/,"Ms J Spence",454,60,E,3,11,0.415,0.479,,,39,,20,1,,,,,,,,,,1,1,,,,1,,,1,,1,,1,1,,,,
2483,Primary,"Hugh Gaitskell Primary School (Foundation)","St Anthony's Drive",,Leeds,"LS11 8AB",428563,430640,"0113 271 6963",sue.richardson@hg-ps.org,http://www.hughgaitskell.leeds.sch.uk,"Mrs M Beesley",454,90,S,3,11,,,,,,,,,,,,,,,,,,,1,,1,,,1,,1,1,1,1,,1,,,,
2474,Primary,"Hunslet Carr Primary School","Woodhouse Hill Road",,Leeds,"LS10 2DN",431201,430724,"0113 271 3804",christine.rayner@hunsletcarr.co.uk,http://www.hunsletcarr.leeds.sch.uk,"Mr P Tyson",344,50,S,3,11,,,,,,,,,,,,,,,,,,1,1,,1,,1,,,1,1,1,1,,1,,,1,
2475,Primary,"Hunslet Moor Primary School","Fairfold Avenue",,Leeds,"LS11 5EL",430153,431367,"0113 271 7257",headteacher@hunsletmoor.leeds.sch.uk,http://www.hunsletmoor.leeds.sch.uk/,"Miss H Darley",310,45,S,3,11,0.262,1.094,,,23,,11,11,,,,,,,,,,1,1,,,,1,,,1,1,1,1,1,1,,,1,
3914,Primary,"Hunslet St Marys Church of England Primary School (Voluntary Aided)","Church Street",Hunslet,Leeds,"LS10 2QY",431179,431347,"0113 271 7204",karen.shields@hunsletstmarys.co.uk,http://www.hunsletstmarys.co.uk,"Mr M Ford",208,30,S,4,11,,,,,,,,,,,,,,,,,,,1,1,1,,,,,1,,1,,,1,1,,1,
3381,Primary,"Immaculate Heart of Mary Catholic Primary School (Voluntary Aided)","292 Harrogate Road",,Leeds,"LS17 6SX",430602,438020,"0113 336 8690",school.office@ihomcps.co.uk,http://www.immaculate-heart-of-mary.leeds.sch.uk,"Mr S Dudgeon",411,60,NE,4,11,,,,,,,,,,,,,,,,,,,,,1,1,,1,1,,,1,,,1,1,,1,
2476,Primary,"Ingram Road Primary School","Brown Lane East",Holbeck,Leeds,"LS11 9LA",428832,432071,"0113 245 6136",info@ingramroad.leeds.sch.uk,http://www.ingramroad.leeds.sch.uk/,"Miss S Millard",268,45,S,3,11,,,,,,,,,,,,,,,,,,1,1,,1,,1,,1,1,1,1,,,1,,,1,
2420,Primary,"Ireland Wood Primary School (Foundation)","Raynel Gardens",,Leeds,"LS16 6BW",426077,439670,"0113 267 8032",info@irelandwood.leeds.sch.uk,http://www.irelandwood.leeds.sch.uk,"Mr I Blackburn",300,60,NW,4,11,,,,,,,,,,,,,,,,,,1,1,1,1,1,1,1,1,1,1,1,,,1,,1,1,1
2410,Primary,"Iveson Primary School (Foundation)","Iveson Rise",,Leeds,"LS16 6LW",426108,438667,"0113 225 6868",office@iveson-primary.co.uk,http://www.iveson-primary.co.uk,"Mrs D Mann",204,45,NW,3,11,,,,,,,,,,,,,,,,,,,,,,1,1,,1,,,1,,,1,,,1,1
4055,Secondary,"John Smeaton Academy","Smeaton Approach","Barwick Road",Leeds,"LS15 8TA",437308,435598,"0113 831 3900",enquiries@johnsmeatonacademy.org.uk,http://www.johnsmeatonacademy.org.uk,"Mr D Yates",960,180,E,11,18,,,,,,,,,148/180,,1,,,,,49,,,,,1,,,,,,,1,1,,1,,,,1
2434,Primary,"Kerr Mackie Primary School","Gledhow Lane",,Leeds,"LS8 1NE",432135,437069,"0113 336 8499",office@kmps.org.uk,http://www.kerrmackie-primary-school.org.uk/,"Mrs A Ronicle",420,60,NE,4,11,0.421,0.644,,,34,,13,13,,,,,,,,,,1,,,1,1,1,,,,1,1,1,,1,,,1,1
2011,Primary,"Khalsa Science Academy Free School","192A Chapeltown Road",,Leeds,"LS7 4HZ",430978,436111,"0113 887 3680",info@khalsascienceacademy.org.uk,http://www.khalsascienceacademy.org.uk/,"Mark Scott",210,30,NE,4,11,,,,,,,,,,,,,,,,,,,,,,,,,,,,,,,1,,,,
2801,Primary,"Kippax Ash Tree Primary School (Foundation)","Gibson Lane",Kippax,Leeds,"LS25 7JL",441894,430482,"0113 385 0680",secretary@kippaxashtree.leeds.sch.uk,http://www.kippaxashtree.leeds.sch.uk,"Ms Campbell",326,60,E,3,11,,,,,,,,,,,,,,,,,,1,,,1,,1,,1,1,,1,,1,1,,,1,
2384,Primary,"Kippax Greenfield Primary School (Foundation)","Ebor Mount",Kippax,Leeds,"LS25 7PA",441468,430609,"0113 287 6195",kgpsoffice@brigshawtrust.com,http://www.schoolswire.co.uk/public/kippax78.html.nocache,"Mrs K Moleele",168,30,E,4,11,,,,,,,,,,,,,,,,,,,,,1,,,,1,,1,1,,1,1,,,,
2399,Primary,"Kippax North Junior, Infant and Nursery School (Foundation)","Brexdale Avenue",Kippax,Leeds,"LS25 7Ej",440932,431517,"0113 286 9427",deatonh01@brigshawtrust.com,http://www.kippaxnorth.leeds.sch.uk,"Mrs B Clark",179,30,E,3,11,0.306,1.021,,,17,,2,11,,,,,,,,,,1,1,,1,,1,1,1,1,1,1,1,1,1,,,1,
3904,Primary,"Kirkstall St Stephens Church of England Primary School (Voluntary Aided)","Morris Lane",,Leeds,"LS5 3JD",426431,435805,"0113 382 1960",contactus@kirkstallss.net,http://www.kirkstall-st-stephens.leeds.sch.uk,"Mr S Viles",200,30,NW,4,11,,,,,,,,,,,,,,,,,,1,,,1,,1,,1,1,,1,,1,1,1,,1,
2411,Primary,"Kirkstall Valley Primary School","Argie Road",,Leeds,"LS4 2QZ",427295,434761,"0113 887 8982",info@kirkstallvalley.org.uk,http://www.kirkstallvalley.leeds.sch.uk,"Ms Mitchell",186,30,NW,3,11,0.237,1.09,,,11,,7,12,,,,,,,,,,1,1,,1,,1,,1,1,,1,,,1,,,1,
5200,Primary,"Lady Elizabeth Hastings Church of England Primary School, Ledston (Voluntary Aided)","Green Lane",Ledston,Wakefield,"WF10 2BD",443243,428780.2,"0197 755 7758",lehoffice@brigshawtrust.com,http://www.ladyehastings.leeds.sch.uk,"Mrs K Dews (acting)",139,20,E,4,11,,,,,,,,,,,,,,,,,,,,,,1,,,1,,,1,1,,1,1,,,1
3356,Primary,"Lady Elizabeth Hastings Church of England Primary School, Thorp Arch (Voluntary Aided)","Dowkell Lane","Thorpe Arch",Wetherby,"LS23 7AQ",443332,446217,"0193 784 2566",helen.obridge@thorparch-leh.co.uk,http://www.ladyhastings-thorparch.leeds.sch.uk,"Ms S Ulyett",132,20,NE,4,11,,,,,,,,,,,,,,,,,,,,,,1,,,1,,,1,1,,1,1,,,1
2000,Primary,"Lane End Primary School (Foundation)","Beeston Road",Holbeck,Leeds,"LS11 6TP",429704,432054,"0113 271 7969",office@laneendprimary.co.uk,,"Mrs Williams",0,60,S,4,11,,,,,,,,,,,,,,,,,,,,,,,,,,,1,,,,,,,,
2497,Primary,"Lawns Park Primary School","Chapel Lane",,Leeds,"LS12 5EX",425093,432247,"0113 263 7364",info@lawnspark.net,http://www.lawnspark.net/,"Ms R Ford",212,30,W,3,11,0.955,0.261,,,12,,12,6,,,,,,,,,,1,,,,,,,1,,1,1,1,,1,,,,
4006,Secondary,"Lawnswood School","Ring Road","West Park",Leeds,"LS16 5AG",426728,437859,"0113 284 4020",school@lawnswoodschool.co.uk,http://www.lawnswoodschool.co.uk,"Mr S White",1300,270,NW,11,18,,,,,,,,,195/270,,,,,11,1,63,,,,,1,,,,,,,,,,1,,,1,
4066,Secondary,"Leeds Jewish Free School","Wentworth Avenue",,Leeds,"LS17 7TN",430181,439856,"0113 269 3176",admin@ljfs.org,http://www.ljfs.org,"Jeremy Dunford",0,25,NE,7,18,,,,,,,,,,,,,,,,,,,,,,,,,,,,,,,1,,,,
6906,Secondary,"Leeds West Academy","Intake Lane",Rodley,Leeds,"LS13 1DQ",422930,435410,"0113 229 5454",info@leedswestacademy.org.uk,http://www.leedswestacademy.org.uk,"Mrs A Hall",900,240,W,11,18,,,,,,,,,,,,,,,,,,,,,1,,,,,,,,,1,1,,,,1
2412,Primary,"Little London Community Primary School (Foundation)","Meanwood Street",,Leeds,"LS7 1SR",430415,434799,"0113 244 2457",office@littlelondonprimary.co.uk,http://www.littlelondon.leeds.sch.uk,"Mrs J Wood",298,90,NW,4,11,,,,,,,,,,,,,,,,,,1,1,1,,,1,1,1,1,1,1,,,1,,,1,
2481,Primary,"Low Road Primary School","Belinda Street",Hunslet,Leeds,"LS10 2PS",431475,431469,"0113 271 6051",jayne.kellett@musicfederation.co.uk,http://www.musicfederation.co.uk/,"Mrs S Sumpner",131,20,S,3,11,0.248,,,,11,,9,,,,,,,,,,"Not all nearest allocated",1,1,,,,1,,,1,,1,,,1,,,1,
2496,Primary,"Lower Wortley Primary School","Lower Wortley Road",,Leeds,"LS12 4PX",426476,431942,"0113 386 2530",admin@lwps.org.uk,http://www.lowerwortley-pri.leeds.sch.uk/,"Mrs B Giles",303,45,W,3,11,0.346,,,,,,,,,,,,,,,20,"Not all nearest allocated",,,,1,,1,,1,1,1,1,1,,1,,,,
2365,Primary,"Lowtown Primary School","Kent Road",Pudsey,Leeds,"LS28 9BB",422888,433466,"0113 256 7303",admin@pudseylowtown.org.uk,http://www.pudseylowtown.leeds.sch.uk/,"Ms C Downham",211,30,W,4,11,0.45,,1,,16,,13,,,,,,,,,,"Not all nearest allocated",,,,,,,,1,1,1,1,,1,1,,,,
2464,Primary,"Manston Primary School","Dennil Road",,Leeds,"LS15 8SD",436599,435401,"0113 264 5445",manston.primary@manston.leeds.sch.uk,http://www.manstonprimary.co.uk,"Mrs P Quick",190,30,E,4,11,0.521,0.44,,,14,,14,2,,,,,,,,,,,1,,1,,,,,1,1,1,,,1,,,1,1
3910,Primary,"Manston St James Church of England Primary Academy","Sandbed Lane",,Leeds,"LS15 8JH",436615,435165,"0113 273 9180",info@manston-st-james.leeds.sch.uk,http://www.manston-st-james.leeds.sch.uk,"Mr M Edwards",420,60,E,4,11,,,,,,,,,,,,,,,,,,1,,,1,,,,1,1,,1,,,1,1,,1,
3923,Primary,"Meadowfield Primary School (Foundation)","Halton Moor Avenue",,Leeds,"LS9 0JY",433677,433227,"0113 336 8010",linda.mackie@meadowfieldclc.org,http://www.meadowfieldclc.org,"Mr R Mellard",397,60,E,3,11,0.455,,,,30,,30,,,,,,,,,,"Not all nearest allocated",,,1,1,,1,1,1,1,1,1,1,1,1,,,1,
3907,Primary,"Meanwood Church of England Primary School (Voluntary Aided)","Green Road",,Leeds,"LS6 4LD",428207,437316,"0113 275 5883",helen.sanderson@meanwood.leeds.sch.uk,http://www.meanwoodschool.co.uk,"Mrs H Sanderson",214,30,NW,4,11,,,,,,,,,,,,,,,,,,1,,,1,,,,1,,1,1,,,1,1,,1,
3916,Primary,"Methley Primary School","Savile Road",Methley,Leeds,"LS26 9HT",439966,427035,"0113 386 2540",tracy.dell@methley-pri.leeds.sch.uk,http://www.methley-pri.leeds.sch.uk/,"Ms T Dell",432,60,S,3,11,0.835,1.987,2,,,,,,,,,,,,,26,,1,,,1,,1,,1,1,,1,1,1,1,,,1,1
3040,Primary,"Micklefield C.E. Primary School","Great North Road",Micklefield,Leeds,"LS25 4AQ",444371,433284,"0113 336 8668",office@micklefieldceprimary.co.uk,http://www.micklefieldprimary.org.uk,"Mrs G Dodsworth",76,20,E,3,11,,,,,,,,,,,,,,,,,,1,1,,1,,1,,,1,1,1,1,1,1,,,1,
2477,Primary,"Middleton Primary School (Foundation)","Middleton Park Avenue",,Leeds,"LS10 4HU",429892,427449,"0113 271 7969",info@middletonprimary.net,http://www.middletonprimary.net,"Ms S Williams",366,60,S,4,11,,,,,,,,,,,,,,,,,,1,1,1,1,,,,,1,,1,,,1,,1,1,
3053,Primary,"Middleton St Marys Church of England Primary School","Moor Flatts Road",,Leeds,"LS10 3SW",430132,428331,"0113 271 7206",enquiries@middletonstmarys.co.uk,http://www.middletonstmarys.co.uk,"Ms S Graham",390,60,S,3,11,0.401,0.997,,1,26,,14,19,,,,,,,,,,1,1,,1,,1,,,1,,1,,1,1,,,1,
3930,Primary,"Mill Field Primary School","Potternewton Mount",,Leeds,"LS7 2DR",429766,436461.3,"0113 262 0021",office@mfprimary.com,http://www.mfprimary.com/,"Mr S Watkins",368,60,NE,3,11,,,,,,,,,,,,,,,,,,1,1,1,1,,1,,1,1,1,,,,1,,,1,
2439,Primary,"Moor Allerton Hall Primary School","Lidgett Lane",,Leeds,"LS17 6QP",431470,438221,"0113 336 8350",office@moorallertonhall.leeds.sch.uk,http://www.moorallertonhall.leeds.sch.uk,"Ms L McKay",385,60,NE,3,11,,,,,,,,,,,,,,,,,,1,,,,,1,,1,1,,1,,,1,,,,
2440,Primary,"Moortown Primary School","Shadwell Lane",,Leeds,"LS17 6DR",430872,438853,"0113 268 5915",office@moortown.leeds.sch.uk,http://www.moortown.leeds.sch.uk,"Mr D Roundtree",205,30,NE,4,11,0.338,,,,13,,17,,,,,,,,,,"Not all nearest allocated",1,1,,1,,1,,,1,1,1,1,1,1,,,1,
4101,Secondary,"Morley Academy","Fountain Street",Morley,Leeds,"LS27 0PD",425947,427447,"0113 253 2952",info@morley.leeds.sch.uk,http://www.morley.leeds.sch.uk,"Mr J A Townsley BA (Hons) NPQH",1578,252,S,11,18,,,,,,,,,,,4,90,152,,,90,,,,,1,1,,,,,,,,,1,,,1,
2321,Primary,"Morley Newlands Primary School","Wide Lane",Morley,Leeds,"LS27 8PG",427624,428034,"0113 323 1890",enquiries@morleynewlands.leeds.sch.uk,http://morleynewlands.leeds.sch.uk/,"Mr A Stygall",414,90,S,4,11,,,,,,,,,,,,,,,,,,1,,,1,,1,,1,1,1,1,,1,1,,,1,
2382,Primary,"Morley Victoria Primary School","Victoria Road",Morley,Leeds,"LS27 9NW",426018,428288,"0113 253 5253",office@morleyvictoria.org.uk,http://www.morleyvictoriaprimary.org.uk,"Mr R H J Elstub",414,60,S,3,11,0.377,0.349,1,,18,,31,9,,1,,,,,,,,,,,,,1,,1,1,1,1,,,1,,,1,
4753,Secondary,"Mount St Marys Catholic High School (Voluntary Aided)","Ellerby Road",,Leeds,"LS9 8LA",431264,433164,"0113 245 5248",hehub@mountstmarys.org,http://www.mountstmarys.org,"Mr M Cooper",909,180,E,11,16,,,,,,,,,,,,,,,,,,,,,1,1,,,,,1,1,1,,1,1,,,
3927,Primary,"New Bewerley Community School","Bismarck Drive",,Leeds,"LS11 6TB",430016,431677,"0113 887 8718",secretary@newbewerley.org.uk,http://www.newbewerley.leeds.sch.uk,"Mr P Wilkins",374,60,S,4,11,0.17,0.463,1,,29,,4,25,,1,,,,,,,,,,1,1,,1,1,1,1,,1,1,1,1,,,1,
2012,Primary,"Nightingale Academy","Stanley Road",,Leeds,"LS9 7AX",432106,434804,"0746 714 6874",headteacher@nightingale.coop,http://www.nightingale.coop,"Ms Ingram",0,60,NE,4,11,,,,,,,,,,,,,,,,,,,,,,,,,,,1,,,,,,,,
2397,Primary,"Ninelands Primary School (Foundation)","Ninelands Lane",Garforth,Leeds,"LS25 1NT",441099,432702,"0113 287 8370",ffice@ninelands-school.co.uk,http://www.ninelands-school.co.uk,"Mrs J Sabourn",450,60,E,3,11,,,,,,,,,,,,,,,,,,1,,,1,,1,,1,,,1,1,1,1,,,1,
2010,Primary,"Oakwood Primary School","North Farm Road",,Leeds,"LS8 3LZ",433161,435311,"0113 240 2526",office@oakwood.coop,http://www.oakwoodleeds.org.uk,"Miss R Ingram",428,60,E,3,11,0.61,0.413,2,,30,,22,7,,,,,,,,,,,1,,1,,1,,,1,1,1,,,1,,,,
2513,Primary,"Otley All Saints Church of England Primary School","Lisker Drive",Otley,Leeds,"LS21 1DF",420981,445208,"0194 346 4703",office@otleyallsaints.co.uk,p://www.otleyallsaints.co.uk,"Mr I Thomson-Smith",210,30,NW,3,11,0.838,2.265,1,,9,,11,9,,,,,,,,,,1,,,1,,1,,1,1,,1,,,1,,,1,
2405,Primary,"Otley The Whartons Primary School","The Whartons",Otley,Leeds,"LS21 2BS",420373,446901,"0194 346 5018",info@whartonsprimary.co.uk,http://www.whartonsprimary.co.uk,"Ms Dickson",198,30,NW,4,11,,,,,,,,,,,,,,,,,,1,,,1,,,,1,1,,1,,,1,,,1,
2327,Primary,"Oulton Primary School","Green Lea",Oulton,Leeds,"LS26 8NT",435835,428799,"0113 214 6303",joanne.smithson@oulton.leeds.sch.uk,http://www.oulton.ik.org,"Ms J Smithson",316,60,S,3,11,,,,,,,,,,,,,,,,,,1,1,,1,,,1,1,,1,1,1,,1,,,1,
3376,Primary,"Our Ladys Catholic Primary School (Voluntary Aided)","Pigeon Cote Road",,Leeds,"LS14 1EP",435102,436668,"0113 214 4123",administrator@ourladys.org,http://www.ourladyscatholicprim.org.uk,"Mrs S Flaherty",210,30,E,3,11,,,,,,,,,,,,,,,,,,1,1,,1,,1,1,,1,,1,1,,1,1,,1,
2488,Primary,"Park Spring Primary School","Wellstone Avenue",,Leeds,"LS13 4EH",423971,433677,"0113 255 2526",office@parkspringprimary.co.uk,http://www.parkspringprimary.co.uk,"Mrs R Horan",249,45,W,3,11,,,,,,,,,,,,,,,,,,,,,,,1,1,,1,,1,1,,1,,,1,
2005,Primary,"Park View Primary Academy","Harlech Road",,Leeds,"LS11 7DG",429513,430893,"0113 271 6754",info@parkviewpa.org.uk,http://www.parkviewpa.org.uk,"Ms E Pickard",210,30,S,3,11,0.17,,,,18,,12,,,,,,,,,,"Not all nearest allocated",1,1,,,,1,,,,1,1,,,1,,,,
2467,Primary,"Parklands Primary School","Dufton Approach",,Leeds,"LS14 6ED",435530,435383,"0113 293 0282",d.mcelwee@parklandsleeds.org.uk,http://parklandsprimary.org.uk,"Mrs C Hindmarch",282,45,E,4,11,,,,,,,,,,,,,,,,,,1,1,1,1,,,,1,,1,,,,1,,1,1,
3051,Primary,"Pool-in-Wharfedale Church of England Primary School","Arthington Lane","Pool In Wharfedale",Leeds,"LS21 1LG",424845,445126,"0113 284 3151",info@poolprimarysch.org.uk,http://www.pool-in-wharfedale-leeds.co.uk/,"Mr M McDermid",203,30,NW,4,11,0.886,,,,10,,20,,,,,,,,,,"Not all nearest allocated",1,,,,,1,,,1,,1,1,,1,,,,
4110,Secondary,"Priesthorpe School (Foundation)","Priesthorpe Lane",Farsley,Leeds,"LS28 5SG",420638,434897,"0113 257 4115",info@priesthorpe.org,http://www.priesthorpe.org,"Mr M Blacoe",1220,195,W,11,18,,,,,,,,,,,3,38,85,,2,67,,,,,1,,,,,,1,,,,1,,,,1
2389,Primary,"Primrose Lane Primary School","Westwood Way","Boston Spa",Wetherby,"LS23 6DX",442657,445388,"0193 784 2667",info@primroselane.leeds.sch.uk,http://www.primroselane.leeds.sch.uk,"Mrs C Holmes",210,30,NE,3,11,0.493,0.28,1,,14,,14,1,,,,,,,,,,,,,1,,1,,1,,1,1,1,,1,,,,
4501,Secondary,"Prince Henrys Grammar School (Academy)","Farnley Lane",Otley,Leeds,"LS21 2BB",420205,446287,"0194 346 3524",info@princehenrys.co.uk,http://www.princehenrys.co.uk,"Mrs J Sheriff",1421,225,NW,11,18,,,,,,,,,,,,85,56,,1,113,,,,,1,,,,,,,,,,1,,,,1
2331,Primary,"Pudsey Bolton Royd Primary School","Moorland Grove",Pudsey,Leeds,"LS28 8EP",420151,433922,"0113 386 2560",info@pudseyboltonroyd.leeds.sch.uk,http://www.pudseyboltonroyd.org,"Mr P Taylor",407,60,W,3,11,0.467,0.477,,,42,,15,3,,,,,,,,,,,,,1,,1,,,1,1,1,1,,1,,,1,
4102,Secondary,"Pudsey Grangefield Maths and Computing College (Foundation)","Mount Pleasant Road",Pudsey,Leeds,"LS28 7ND",422336,433739,"0113 255 8277",ontactus@pudseygrangefield.co.uk,http://www.pudseygrangefield.leeds.sch.uk/,"Mr K M Cornforth",1156,195,W,11,18,,,,,,,,,,,3,74,43,,,75,,,,,1,,,,,,1,,,,1,,,,
2339,Primary,"Pudsey Primrose Hill Primary School","Primrose Hill",Stanningley,Leeds,"LS28 6AB",422024,434016,"0113 257 4129",admin@pudseyprimrosehill.co.uk,http://www.primrosehill.leeds.sch.uk,"Mrs L West",353,60,W,3,11,0.321,0.71,,,22,,12,26,,,,,,,,,,,,,1,,1,,,1,1,1,1,,1,,,1,
2326,Primary,"Pudsey Tyersal Primary School","Tyersal Walk",,Bradford,"BD4 8ER",419799,432549,"0127 466 2363",a.durn@pudseytyersalps.org.uk,http://www.pudseytyersalps.co.uk,"Mrs J Jobson",208,30,W,3,11,,,,,,,,,,,,,,,,,,1,,,1,,,1,,1,1,1,1,,1,,,1,
3920,Primary,"Pudsey Waterloo Primary School","Victoria Road",Pudsey,Leeds,"LS28 7SR",421368,433227,"0113 336 8020",v.bray@pudseywaterloo.org.uk,http://www.pudseywaterloo.co.uk,"Mrs K Priestley",395,60,W,3,11,0.405,1.042,,,27,,25,8,,,,,,,,,,,,,1,,1,,1,,1,1,,1,1,,,1,
2413,Primary,"Quarry Mount Primary School","Pennington Street",,Leeds,"LS6 2JP",429432,435546,"0113 245 5803",acarter@quarrymountprimary.org.uk,http://www.quarrymount.leeds.sch.uk/,"Ms Hendley",173,30,NW,4,11,,,,,,,,,,,,,,,,,,,1,1,,,1,1,1,1,,1,,,1,,,1,
2356,Primary,"Queensway Primary School and Yeadon and Rawdon Childrens Centre","Coppice Wood Avenue",Yeadon,Leeds,"LS19 7LF",420304,441881,"0194 387 4925",office@queenswayschool.co.uk,http://www.angelapplicationsltd.com/queensway/,"Mr A Davies",207,30,NW,3,11,,,,,,,,,,,,,,,,,,1,,,,,1,1,1,1,1,1,,,1,,,1,
4062,Secondary,"Ralph Thoresby School (Foundation)","Holt Dale Approach",,Leeds,"LS16 7RX",425779,439865,"0113 397 9911",headteacher@ralphthoresby.com,http://www.ralphthoresby.com,"Mr W Carr",968,180,NW,11,18,,,,,,,,,180/180,,3,,,13,6,54,,,,,1,,,,,,1,,,,1,,,,
2271,Primary,"Rawdon Littlemoor Primary School","New Road Side",Rawdon,Leeds,"LS19 6DD",420564,439949,"0113 887 9690",office@rawdonlittlemoor.org,http://www.rawdonlittlemoor.org/,"Mrs S Henderson",320,45,NW,4,11,0.434,0.478,1,,20,,13,11,,,,,,,,,,,,,1,,1,,1,1,1,1,,1,1,,,1,
3031,Primary,"Rawdon St Peters Church of England Primary School","Town Street",Rawdon,Leeds,"LS19 6PP",421808,439438,"0113 250 4201",headteacher@rawdonstpeters.co.uk,http://www.rawdonstpeters.org.uk,"Ms C Sibson",310,45,NW,4,11,,,,,,,,,,,,,,,,,,1,,,,,1,,1,1,,1,,1,1,,,1,
2489,Primary,"Raynville Primary School","Cross Aston Grove",,Leeds,"LS13 2TQ",425210,434714,"0113 257 9590",m.townsend@raynvilleprimaryleeds.org,http://www.raynvilleprimaryleeds.org.uk/,"Mrs M Townsend",404,60,W,3,11,0.411,0.579,1,,29,,22,9,,,,,,,,,,1,1,,1,,1,,1,,1,1,,,1,,,1,
2451,Primary,"Richmond Hill Primary School","Clark Crescent",,Leeds,"LS9 8QF",431832,433009,"0113 336 8899",info@richmondhill.leeds.sch.uk,http://www.richmondhillprimary.ik.org,"Mrs S Mudie",426,90,E,3,11,,,,,,,,,,,,,,,,,,,1,,1,,1,,,1,1,1,1,,1,,,1,
2309,Primary,"Robin Hood Primary School","Leeds Road","Robin Hood",Wakefield,"WF3 3BG",432551,426884,"0113 282 3444",sue.smith@robinhood.leeds.sch.uk,http://www.robinhood.leeds.sch.uk,"Ms G Dale",321,60,S,3,11,1.008,0.939,3,,16,,30,9,,2,,,,,,,,1,1,,1,,1,,1,1,,1,,,1,,,1,
4103,Secondary,"Rodillian School (Academy)","Longthorpe Lane",Lofthouse,Wakefield,"WF3 3PS",432983,426059,"0192 487 2252",ontact@rodillianacademy.co.uk,http://www.therodillianacademy.co.uk,"Mr A Goulty",1220,240,S,11,18,1.744,1.891,,,,,,,,,10,96,65,,5,94,,,,,1,1,,,,,,,1,,1,,,1,
2415,Primary,"Rosebank Primary School","Burley Road",,Leeds,"LS3 1JP",428617,434236,"0113 243 3497",school@rosebank.leeds.sch.uk,ttp://www.rosebank.leeds.sch.uk,"Mrs G Young",250,40,NW,3,11,,,,,,,,,,,,,,,,,,,1,,1,,1,1,,1,1,1,1,,1,,,,
2013,Primary,"Rothwell Church of England Primary School",Queensway,Rothwell,Leeds,"LS26 0NB",434509,428593,"0113 273 9190",headteacher@rothwell.leeds.sch.uk,http://www.rothwellcofe.co.uk,"Mr D Foulke",197,30,S,4,11,,,,,,,,,,,,,,,,,,1,,,1,,,,1,,1,1,,,1,,,1,
2313,Infant,"Rothwell Haigh Road Infant School","Haigh Road",Rothwell,Leeds,"LS26 0NQ",434188,428928,"0113 214 6314",info@haighroad.org.uk,http://www.haighroadinfantschool.com,"Miss S A Boulton",134,45,S,3,7,,,,,,,,,,,,,,,,,,1,,,,,1,1,1,1,1,,1,1,1,,,1,
2506,Primary,"Rothwell Primary School","Carlton Lane",Rothwell,Leeds,"LS26 0DJ",434074,427856,"0113 386 2570",janet.booth@rothwell-pri.leeds.sch.uk,http://www.rothwellprimary.co.uk/leeds/primary/rothwell,"Ms J Booth",315,45,S,3,11,0.459,1.705,1,,15,,10,19,,,,,,,,,,,,,1,,1,,1,1,,1,1,1,1,,,1,1
3364,Primary,"Rothwell St Marys Catholic Primary School (Voluntary Aided)","Royds Lane",Rothwell,Leeds,"LS26 0BJ",434739,427870,"0113 214 6313",head@rothwellstmarys.org.uk,http://www.rothwell-st-marys.leeds.sch.uk/homepage/index.php,"Ms S Leonard",207,30,S,4,11,,,,,,,,,,,,,,,,,,,,,1,,,,,1,1,1,1,,1,1,,,1
2342,Junior,"Rothwell Victoria Junior School","Cornwall Crescent","Off Wood Lane",Leeds,"LS26 0RA",433801,428742,"0113 393 2926",admin@victoria-jun.leeds.sch.uk,http://www.rothwellvictoriajunior.co.uk/,"Mrs P Ward",145,45,S,7,11,,,,,,,,,,,,,,,,,,1,,,,,,,,1,,1,,1,1,,,,1
4063,"Secondary (Through School)","Roundhay School  All-through education from 4 to 18 Primary Campus","Elmete Lane",,Leeds,"LS8 2LG",432314,437265,"0113 393 1207",primary@roundhay.leeds.sch.uk,http://www.roundhayschool.org.uk/,"Head Mr N Clephan Primary Leader Kirsty Godfrey",60,60,NE,4,18,0.776,0.525,4,,30,,20,3,,3,,,,,,,,,,,,,,,,,,,,,1,,,,
4063,"Secondary (Through School)","Roundhay School All-through education from 4 to 18 Secondary Campus","Gledhow Lane",,Leeds,"LS8 1ND",432314,437265,"0113 393 1200",secondary@roundhayschool.com,http://www.roundhayschool.org.uk,"Mr N Clephan BA MA Ad DipEd Man",1777,250,NE,4,18,,,,,,,,,,,4,108,,,6,132,"Not all nearest allocated",,,,1,,,,,,,,,,1,,,,
3329,Primary,"Roundhay St Johns Church of England Primary School (Voluntary Aided)","North Lane",,Leeds,"LS8 2QJ",433286,436924,"0113 265 8451",secretary@roundhaystjohns.com,http://www.roundhay-st-johns.leeds.sch.uk,"Mr A Graham",212,30,NE,3,11,,,,,,,,,,,,,,,,,,1,,,1,,1,,1,1,,1,1,1,1,1,,,
4104,Secondary,"Royds School Specialist Language College (Foundation)","Pennington Lane",Oulton,Leeds,"LS26 8EX",435783,426896,"0113 205 9559",info@roydsschool.org,http://www.roydsschool.org,"Mrs B Young MA NPQH",1350,220,S,11,18,,,,,,,,,190/220,,,,,19,1,55,,,,,1,1,,,,,1,,,,1,,,1,1
2002,Primary,"Rufford Park Primary School","Rufford Avenue",Yeadon,Leeds,"LS19 7QR",420856,440827,"0113 391 0906",admin@ruffordparkprimary.org.uk,http://www.ruffordparkprimary.org.uk/,"Mrs A Anslow",230,45,NW,4,11,0.434,0.499,,,15,,26,4,,,,,,,,,,1,,,1,,1,,,1,,1,,,1,,,,
4067,Secondary,"Ruth Gorse Academy","C/O Fountain Street",Morley,Leeds,"LS27 0PD",430600,432810,"0113 253 1600",info@ruthgorse.leeds.sch.uk,http://www.ruthgorse.leeds.sch.uk,"John Townlsey",95,190,S,11,19,,,,,,,,,,,,,,,,,,,,,1,1,,,,,1,1,,,1,,,1,
2016,Primary,"Ryecroft Primary School","Stonebridge Grove",,Leeds,"LS12 5AW",425279,432785,"0113 263 2433",tina.dunolerdale@ryecroftacademy.co.uk,http://www.ryecroftprimaryschool.co.uk,"Mr Midgley",179,60,W,3,11,,,,,,,,,,,,,,,,,,1,1,,,,1,,1,,1,1,,,1,,,1,
3377,Primary,"Sacred Heart Catholic Primary School (Voluntary Aided)","Eden Way",,Leeds,"LS4 2TF",426735,435150,"0113 336 8003",office@sacredheartleeds.org.uk,http://www.sacredheart.leeds.sch.uk,"Mrs C McDonald",197,30,NW,3,11,,,,,,,,,,,,,,,,,,,,,,1,,1,1,1,1,1,,,1,1,,1,1
2275,Primary,"Scholes (Elmet) Primary School","Station Road",Scholes,Leeds,"LS15 4BJ",437584,436787,"0113 264 9149",sue.craggs@fsw.leeds.sch.uk,http://www.scholeselmet.leeds.sch.uk,"Mrs P J Edwards",255,40,E,3,11,0.592,1.638,,,18,,10,12,,,,,,,,,,1,,,1,,1,,1,1,1,1,1,1,1,,,1,
2452,Primary,"Seacroft Grange Primary School","Moresdale Lane",,Leeds,"LS14 6JR",434813,435120,"0113 260 5385",head@seacroftgps.org.uk,http://www.seacroftgrange.leeds.sch.uk,"Mr L Brown",219,30,E,4,11,0.236,0.25,,,19,,10,1,,,,,,,,,,1,1,,,1,,,,1,1,1,,,1,,,1,
2293,Primary,"Seven Hills Primary School","Appleby Way",Morley,Leeds,"LS27 8LA",426722,427908,"0113 252 7194",helen.robertshaw@seven-hillsschool.org.uk,http://www.sevenhillsmorley.org.uk,"Mr R Catherall",408,60,S,3,11,,,,,,,,,,,,,,,,,,1,1,1,1,,1,1,1,1,,1,,1,1,,,,
2441,Primary,"Shadwell Primary School - Federated with Bramham Primary School","Main Street",,Leeds,"LS17 8JF",434651,439633,"0113 273 2729",k.mosley@shadwellprimary.org,http://www.shadwell.leeds.sch.uk/,"Ms S J Pyatt",212,30,NE,4,11,0.269,,,,19,,11,,,,,,,,,,"Not all nearest allocated",1,,,1,,1,1,1,1,,1,,,1,,,1,
2462,Primary,"Shakespeare Primary School and Childrens Centre","Shakespeare Avenue",,Leeds,"LS9 7HP",431666,434189,"0113 336 8340",office@shakespeareleeds.org.uk,http://www.shakespeareleeds.org.uk,"Mr J Gorton",326,45,E,3,11,0.326,,,,30,,14,,,,,,,,,,"All nearest allocated. No non nearest allocated",,1,1,1,,1,1,,1,1,1,,1,1,,1,1,
2510,Primary,"Sharp Lane Primary School","Sharp Lane",,Leeds,"LS10 4QE",431300,428200,"0113 214 1702",contact@sharplane.leeds.sch.uk,http://www.sharplane.leeds.sch.uk,"Ms M Wilson",412,60,S,3,11,0.508,0.595,1,,42,,26,20,,,,,,,,,,1,,,,,1,,,1,,1,,1,1,,,1,1
3929,Primary,"Shire Oak Church of England Primary School","Wood Lane",,Leeds,"LS6 2DT",428139,436296,"0113 275 5890",jackiev@shireoak.leeds.sch.uk,http://www.shireoakcofeprimaryschool.co.uk/,"Ms J Devane",210,30,NW,4,11,0.429,0.578,,,16,,10,4,,,,,,,,,,,,,1,,,,1,1,1,1,,,1,,,1,
6907,Secondary,"South Leeds Academy","Old Run Road",,Leeds,"LS10 2JU",430554,430003,"0113 212 7147",info@tsla.org.uk,http://www.tsla.org.uk,"Ms C Jones",1320,210,S,11,18,,,,,,,,,192/210,,,,,70,56,,,,,,1,1,,,,,,,,,1,,,,
2335,Primary,"Southroyd Primary School","Littlemore Crescent",Pudsey,Leeds,"LS28 8AT",422273,432497,"0113 257 0197",kathryn.austwick@pudseysouthroyd.leeds.sch.uk,https://www.pudseysouthroyd.leeds.sch.uk/,"Ms K Prior",398,60,W,3,11,0.478,,,,29,,30,,,1,,,,,,,"Not all nearest allocated",1,,,,,1,,1,1,1,1,,1,1,,,1,
2414,Primary,"Spring Bank Primary School","Spring Road",,Leeds,"LS6 1AD",428049,435734,"0113 204 3120",hello@springbankprimary.org,http://www.springbankprimary.org/,"Mr M Brawley",206,30,NW,4,11,0.448,0.763,,,8,,4,17,,1,,,,,,,,1,,,1,,,,1,1,1,1,1,,1,,,1,
3363,Primary,"Ss Peter and Paul Catholic Primary School, Yeadon (Voluntary Aided)","Crofters Lea","New Road",Leeds,"LS19 7HW",419782,440930,"0113 323 0419",ssppyeadon@yahoo.co.uk,http://www.sspeterandpaulyeadon.co.uk,"Mrs D Todd",212,30,NW,4,11,,,,,,,,,,,,,,,,,,,,,1,,,,,1,,1,1,1,1,1,,1,
3367,Primary,"St Anthonys Catholic Primary School, Beeston (Voluntary Aided)","Barkly Road",,Leeds,"LS11 7JS",428925,430670,"0113 277 6944",l.leonard@stanthonysleeds.org.uk,http://www.stanthonysbeeston.ik.org,"Ms L Leonard",208,30,S,4,11,,,,,,,,,,,,,,,,,,1,,,1,,,,,1,,1,1,,1,1,,1,
3368,Primary,"St Augustines Catholic Primary School, Harehills (Voluntary Aided)","St Wilfrid's Circus",,Leeds,"LS8 3PF",432610,435438,"0113 293 0350",sheila.hebbron@staugustinesleeds.org.uk,http://www.staugustinesleeds.org.uk,"Mrs S OBrien",412,60,E,3,11,,,,,,,,,,,,,,,,,,1,1,,,,1,,1,,,1,1,1,1,1,,1,
3056,Primary,"St Bartholomews Church of England Primary School","Strawberry Lane",,Leeds,"LS12 1SF",427449,433123,"0113 263 9292",p.gavin@stbartsleeds.org.uk,http://www.st-bartholomews.leeds.sch.uk,"Mrs P Gavin",546,75,W,3,11,,,,,,,,,,,,,,,,,,,1,,,,1,1,1,1,1,1,,1,1,,,,
3365,Primary,"St Benedicts Catholic Primary School (Voluntary Aided)","Station Fields",Garforth,Leeds,"LS25 1PS",440719,433395,"0113 286 9819",admin@sbcps.bkcat.co.uk,http://www.st-benedicts.leeds.sch.uk,"Mr K Flood",210,30,E,3,11,,,,,,,,,,,,,,,,,,,,,1,1,1,,1,1,,1,1,,1,1,,1,
3315,Primary,"St Chads Church of England Primary School (Voluntary Aided)","Northholme Avenue",,Leeds,"LS16 5QR",426572,437467,"0113 274 7110",katy.dixon@stchadsprimary.net,ttp://www.st-chads.leeds.sch.uk,"Ms H Pratten",210,30,NW,3,11,,,,,,,,,,,,,,,,,,1,,,1,,1,,1,1,,1,,,1,1,,1,
3358,Primary,"St Edwards Catholic Primary School (Voluntary Aided)","Westwood Way","Boston Spa",Leeds,"LS23 6DL",442626,445547,"0193 784 3946",headteacher@st-edwards.leeds.sch.uk,http://www.st-edwards.leeds.sch.uk/,"Mrs J Burns",152,20,S,4,11,,,,,,,,,,,,,,,,,,,,,1,,,,,,1,1,1,,1,1,,1,
3362,Primary,"St Francis Catholic Primary School, Morley (Voluntary Aided)","Highcliffe Road",Morley,Leeds,"LS27 9LX",425838,427894,"0113 323 0554",j.whitfield@stfrancismorley.org.uk,http://www.stfrancismorley.org.uk/,"Mrs J Burns",154,30,S,4,11,,,,,,,,,,,,,,,,,,,,,,,,,1,,1,1,,1,1,1,,1,
3371,Primary,"St Francis of Assisi Catholic Primary School, Beeston (Voluntary Aided)","Lady Pit Lane",,Leeds,"LS11 6RX",429902,431473,"0113 270 0978",catherine.cartwright@beeston-st-francisassisi.leeds.sch.uk,http://leeds.gov.uk,"Mrs P M Holmes",194,25,S,3,11,,,,,,,,,,,,,,,,,,,1,,,,1,,,,1,1,,,1,1,,,
3374,Primary,"St Josephs Catholic Primary School, Hunslet (Voluntary Aided)","Joseph Street",,Leeds,"LS10 2AD",431083,431825,"0113 271 2093",c.richardson@stjosephscatholicprimary.org,http://www.hunslet-st-josephs.leeds.sch.uk,"Miss C McHale",200,30,S,4,11,,,,,,,,,,,,,,,,,,,1,,1,,,,,,1,1,,,1,1,,1,
3360,Primary,"St Josephs Catholic Primary School, Otley (Voluntary Aided)","Manor Square",Otley,Leeds,"LS21 3AP",420059,445658,"0194 346 3840",c.knight@stjosephsotley.org,ttp://www.stjosephsotley.org.uk,"Ms C Knight",191,30,NW,4,11,,,,,,,,,,,,,,,,,,,1,,1,,,,1,1,1,1,1,,1,1,,1,
3361,Primary,"St Josephs Catholic Primary School, Pudsey (Voluntary Aided)","Mount Pleasant Road",Pudsey,Leeds,"LS28 7AZ",422613,433778,"0113 256 5407",a.ashworth@stjosephspudsey.org,http://www.stjosephscatholicprimary.co.uk/,"Ms A Ashworth",220,45,W,4,11,,,,,,,,,,,,,,,,,,,1,,1,1,,,1,1,,1,1,,1,1,,1,
3366,Primary,"St Josephs Catholic Primary School, Wetherby (Voluntary Aided)","Barleyfields Road",Wetherby,Leeds,"LS22 6PR",440104,448729,"0193 758 2163",office@stjosephswetherby.com,http://www.stjosephswetherby.com,"Mr S Nicholson",206,30,NE,4,11,,,,,,,,,,,,,,,,,,,,,1,1,1,,1,1,,1,1,,1,1,,1,
3359,Primary,"St Marys Catholic Primary School, Horsforth (Voluntary Aided)","Broadgate Lane",Horsforth,Leeds,"LS18 5AB",424325,438276,"0113 258 4593",m.hartley@stmaryshorsforth.org,http://www.stmaryshorsforth.org/,"Mr P Hughes",212,30,NW,4,11,,,,,,,,,,,,,,,,,,,,,,,,,1,1,1,1,1,1,1,1,,,
3047,Primary,"St Marys Church of England Primary School","Clifford Road","Boston Spa",Leeds,"LS23 6DB",443034,445276,"0193 784 4395",admin@stmaryscofe.org.uk,http://www.stmaryscofe.org.uk,"Mrs J Alexander",150,20,NE,4,11,,,,,,,,,,,,,,,,,,,1,,1,,1,1,1,,,1,,,1,,,1,
4601,Secondary,"St Marys Menston Catholic Voluntary Academy","Bradford Road",,Leeds,"LS29 6AE",418002,443071,"0194 388 3000",admin@stmarysmenston.org,http://www.stmarysmenston.org/,"Mr T Rothwell and Miss C Garrett",1172,180,NW,11,18,,,,,,,,,,,,,,,,,,,,,1,1,,,,1,1,,,,1,1,,,1
3908,Primary,"St Matthews Church of England Primary School (Voluntary Aided)","Wood Lane",,Leeds,"LS7 3QF",430214,437336,"0113 268 1489",headteacher@St-Matthews.leeds.sch.uk,http://www.st-matthews.leeds.sch.uk,"Ms H Lacey",415,60,NE,4,11,,,,,,,,,,,,,,,,,,1,,,,,,,1,1,1,,1,,1,1,,1,
3375,Primary,"St Nicholas Catholic Primary School (Voluntary Aided)","Oakwood Lane",,Leeds,"LS9 6QY",433726,435213,"0113 293 0318",wrightm@stnicholasprimaryleeds.org.uk,http://www.stnicholasprimaryleeds.org.uk,"Mr P Lawson",280,40,E,4,11,,,,,,,,,,,,,,,,,,,1,,1,,,,,1,1,1,,1,1,1,,1,
3350,Junior,"St Oswalds Church of England Junior School (Voluntary Aided)","The Green",Guiseley,Leeds,"LS20 9BT",419418,441882,"0194 387 3570",office@stoswaldsleeds.org,http://www.stoswaldsleeds.org,"Mrs M F Woodall",311,90,NW,7,11,,,,,,,,,,,,,,,,,,1,,,,,,,1,1,1,1,,1,1,1,,1,
3382,Primary,"St Patricks Catholic Primary School (Voluntary Aided)","Torre Road",,Leeds,"LS9 7QL",432224,433886,"0113 248 0380",s.kneeshaw@stpatrickleeds.org.uk,http://www.stpatricksleeds.org.uk,"Mrs S Kneeshaw",212,30,E,4,11,,,,,,,,,,,,,,,,,,,,,,,,,,1,,1,1,1,1,1,,1,
3378,Primary,"St Pauls Catholic Primary School (Voluntary Aided)","Buckstone Crescent",,Leeds,"LS17 5ES",429219,439603,"0113 293 9901",school.office@stpaulscps.org.uk,http://www.stpaulscps.com,"Mrs M A Cabry",210,30,NE,4,11,,,,,,,,,,,,,,,,,,,,,1,1,,,,1,,1,1,,1,1,,1,
3911,Primary,"St Peters Church of England Primary School (Voluntary Aided)","Cormwell Street",,Leeds,"LS9 7SG",431045,433904,"0113 293 4411",liz.holliday@stpeterscofe.org.uk,http://www.stpeterscofe.org.uk,"Mrs E Holliday",216,30,E,3,11,,,,,,,,,,,,,,,,,,1,1,,,,1,,,,1,1,1,,1,1,,1,
3379,Primary,"St Philips Catholic Primary School Middleton (Voluntary Aided)","St Philip's Avenue",,Leeds,"LS10 3SL",429965,428251,"0113 271 6763",headteacher@st-philips.org,http://www.st-philips.org,"Mrs E Taylor",214,30,S,3,11,,,,,,,,,,,,,,,,,,1,,,,,1,,,1,1,1,,,1,1,,,
3385,Primary,"St Theresas Catholic Primary School (Voluntary Aided)","Barwick Road",,Leeds,"LS15 8RQ",436207,435508,"0113 293 0240",headteacher@st-theresas.leeds.sch.uk,http://www.st-theresas.leeds.sch.uk/,"Mr J Hutchinson",420,60,E,3,11,,,,,,,,,,,,,,,,,,,,,,,1,,1,,1,,,1,1,1,,1,1
3373,Primary,"St Urbans Catholic Primary School (Voluntary Aided)","Tongue Lane",,Leeds,"LS6 4QD",429085,438227,"0113 293 4477",info@sturbans.co.uk,http://www.sturbans.co.uk,"Miss T McStay",204,30,NW,4,11,,,,,,,,,,,,,,,,,,1,,,,,1,1,,1,1,1,1,,1,1,,,1
2490,Primary,"Stanningley Primary School","Leeds and Bradford Road",Stanningley,Leeds,"LS28 6PE",422989,434899,"0113 255 7677",jackie.reid@stanningleyprimary.com,http://www.stanningleyprimary.com/,"Mrs J Reid",259,30,W,3,11,0.381,0.281,,,14,,14,2,,,,,,,,,,,,,1,,1,1,,1,1,1,1,,1,,,1,
3917,Primary,"Strawberry Fields Primary School (Foundation)","Lidgett Lane",Garforth,Leeds,"LS25 1LL",440124,432813,"0113 386 2490",info@sfpsch.org.uk,http://www.strawberryfields.leeds.sch.uk,"Mrs R Janney",309,45,E,3,11,,,,,,,,,,,,,,,,,,1,,,1,,1,,1,1,1,1,,1,1,,,1,
2491,Primary,"Summerfield Primary School","Intake Lane",,Leeds,"LS13 1DQ",422904,435301,"0113 205 7520",vickerj03@schoolslink.net,http://www.summerfieldprimary.co.uk,"Mrs K Wittmann",202,30,W,3,11,0.222,,2,,25,,,3,,,,,,,,,"Not all nearest allocated",,1,,1,,1,,1,1,,1,,1,1,,,,
4037,Secondary,"Swallow Hill Community College (Academy)","Whingate Road",,Leeds,"LS12 3DS",425948,433283,"0113 263 0110",contactus@swallowhillcommunitycollege.org,http://www.swallowhillcommunitycollege.org/,"Saira Luffman",1250,240,W,11,18,,,,,,,,,167/240,,,,,63,2,44,,,,,1,1,,,,1,1,,1,,1,,,,
2468,Primary,"Swarcliffe Primary School","Swarcliffe Drive",,Leeds,"LS14 5JW",436253,436187,"0113 293 0275",headteacher@swarcliffeprimary.co.uk,http://www.swarcliffeprimary.co.uk,"Mrs D Rankine",267,45,E,3,11,,,,,,,,,,,,,,,,,,,1,,1,,1,1,1,,1,,,1,1,,,1,
2328,Primary,"Swillington Primary School (Foundation)","Church Lane",Swillington,Leeds,"LS26 8DX",438416,430514,"0113 286 3220",SPSHeadTeacher@brigshawtrust.com,http://www.swillington.leeds.sch.uk/,"Mrs S Elliott",195,30,E,3,11,0.339,,,,13,17,,,,,,,,,,,"Priority 3 (their policy). Not all nearest allocated",,1,,1,,1,,,1,1,1,1,,1,,,,
2503,Primary,"Swinnow Primary School","Swinnow Road",,Leeds,"LS13 4PG",423143,433842,"0113 214 6080",info@swinnowprimary.com,http://swinnow.leedsschools.org,"Mrs A Chin",215,30,W,3,11,0.249,0.581,,,16,,10,4,,,,,,,,,,,1,,,,1,1,,,,1,1,1,1,,,1,
2432,Primary,"Talbot Primary School","East Moor Road",,Leeds,"LS8 1AF",431892,438478,"0113 293 4086",admin@talbotprimary.net,http://www.talbot.leeds.sch.uk,"Mrs L Clay",426,60,NE,3,11,0.269,,,,32,,28,,,,,,,,,,"Not all nearest allocated",1,,,1,,1,,1,1,,1,,,1,,,1,
9999,#N/A,"Temple Learning Academy","Pure Offices, 4100 Park Approach","Thorpe Arch",Leeds,"LS15 8GB",#N/A,#N/A,"0113 397 0378",info@templelearningacademy.org,http://www.templelearningacademy.org/,"Martin Fleetwood",0,0,E,4,16,,,,,,,,,,,,,,,,,,,1,,,,,,,,,,,,,,,,
4046,Secondary,"Temple Moor High School (Foundation)","Field End Grove","Selby Road",Leeds,"LS15 0PT",435583,433486,"0113 390 0770",contact@tmhs.co.uk,http://www.tmhs.co.uk,"Mr M Fleetwood",1215,210,E,11,18,,,,,,,,,,,5,112,5,,6,82,,,,1,,,,,,,1,,,,1,,,,
2465,Primary,"Templenewsam Halton Primary School (Foundation)","Pinfold Lane",,Leeds,"LS15 7SY",435373,433682,"0113 293 0314",info@templenewsamhalton.leeds.sch.uk,http://www.templenewsamhalton.leeds.sch.uk/,"Mrs K Patel",423,60,E,3,11,0.59,0.605,,,16,33,11,,,,,,,,,,"Priority 3 (their policy)",,1,,,,1,,1,1,1,1,,1,1,,,,1
3044,Primary,"Thorner Church of England Primary School",Kirkhills,Thorner,Leeds,"LS14 3JD",438241,440549,"0113 289 2541",office@thornerschool.org.uk,http://www.thorner.leeds.sch.uk,"Mrs Whawell",180,30,NE,4,11,,,,,,,,,,,,,,,,,,,,,1,,,,1,,1,1,1,,,1,,1,
2312,Primary,"Thorpe Primary School","Dolphin Lane",Thorpe,Wakefield,"WF3 3DG",431438,426527,"0113 336 8760",jeannette.mccormack@thorpe.leeds.sch.uk,http://www.thorpe.leeds.sch.uk,"Mr S McCarthy",196,30,S,3,11,0.399,,,,18,,13,,,,,,,,,,"Not all nearest allocated",1,,,1,,1,,,1,1,1,,,1,,,1,
2348,Primary,"Tranmere Park Primary School","Ridge Close, Tranmere Park",Guiseley,Leeds,"LS20 6JJ",418069,441733,"0194 387 5050",secretary@tranmerepark.leeds.sch.uk,http://www.tranmerepark.leeds.sch.uk,"Mrs K Finley",357,45,NW,4,11,1.011,0.522,,,18,,26,1,,,,,,,,,,1,,,1,,,,1,1,1,1,,,1,,,1,
3928,Primary,"Valley View Community Primary School","Coal Hill Drive",Rodley,Leeds,"LS13 1DD",422593,435580.4,"0113 255 4972",office@valleyviewschool.org.uk,http://www.valleyview-pri.leeds.sch.uk,"Mrs S Griggs",290,60,W,4,11,0.555,0.935,,,21,,18,21,,,,,,,,,,,1,,1,,1,1,1,1,,1,,1,1,,,1,
2454,Primary,"Victoria Primary School","Ivy Avenue",,Leeds,"LS9 9ER",432906,433851,"0113 248 2449",info@victoria-pri.leeds.sch.uk,http://www.victoria-pri.leeds.sch.uk,"Mrs A Carrick",391,60,E,3,11,0.421,0.751,,,22,,20,18,,,,,,,,,,1,1,1,1,,1,,1,1,,1,1,1,1,,,1,
2421,Primary,"Weetwood Primary School","Weetwood Lane",,Leeds,"LS16 5NW",427550,437083,"0113 336 8040",kmason@weetwoodprimary.co.uk,http://www.weetwoodschool.co.uk,"Mrs T Wyatt",210,30,NW,3,11,0.35,,1,,11,,18,,,,,,,,,,"Not all nearest allocated",1,1,,1,,1,,1,,,1,,1,,,,1,
2364,Primary,"Westbrook Lane Primary School","Westbrook Lane",Horsforth,Leeds,"LS18 5AH",423681,439042,"0113 258 7913",info@westbrooklane.leeds.sch.uk,http://www.westbrooklaneprimaryschool.co.uk/,"Mrs A Turner (Acting)",214,30,NW,4,11,0.445,,,,15,,15,,,,,,,,,,"Not all nearest allocated",,,,,,1,,1,1,,1,,1,1,,,1,
2297,Primary,"Westerton Primary School","Hesketh Lane",Tingley,Wakefield,"WF3 1AR",427853,425395,"0113 253 3504",office@westerton.org.uk,http://www.westerton.leeds.sch.uk,"Mrs S Makin",633,90,S,3,11,0.678,0.996,2,,38,,25,25,,,,,,,,,,1,,,1,,1,,,1,,1,,1,1,,,1,
2403,Primary,"Westgate Primary School","Scarborough Road",Otley,Leeds,"LS21 3JS",419646,445273,"0194 346 2349",info@westgateprimary.co.uk,http://www.westgateprimary.co.uk,"Ms H R Carpenter",216,30,NW,3,11,0.505,,,,13,,17,,,,,,,,,,"Not all nearest allocated",1,1,,1,,1,1,,1,1,1,,1,1,,,1,
2478,Primary,"Westwood Primary School (Foundation)","Bodmin Garth",,Leeds,"LS10 4NU",429365,427958,"0113 271 2420",Westwood@westwoodandclapgate.org,http://www.westwood.leeds.sch.uk,"Mrs Z Adams",305,40,S,3,11,0.869,4.36,,,15,,15,10,,,,,,,,,,1,1,,,,1,,,,,1,,,1,,,1,
4111,Secondary,"Wetherby High School (Foundation)","Hallfield Lane",Wetherby,Leeds,"LS22 6JS",440756,448333,"0193 752 2500",office@wetherbyhigh.co.uk,http://www.wetherbyhigh.co.uk,"Ms A K Barnes",913,170,NE,11,18,,,,,,,,,125/170,,,,,,,46,,,,,1,1,,,,,1,,1,,1,,,,
3045,Primary,"Wetherby St James Church of England Primary School","Hallfield Lane",Wetherby,Leeds,"LS22 6JS",440881,448500,"0193 758 3379",stjames@aol.com,http://wetherbystjames.schooljotter2.com/,"Mr D Walsh",76,20,NE,3,11,,,,,,,,,,,,,,,,,,1,,,,,1,1,,,,1,,,1,,,,
2493,Primary,"Whingate Primary School","Whingate Road",,Leeds,"LS12 3DS",426193,433126,"0113 263 8910",secretary@whingate.com,http://www.whingate.leeds.sch.uk,"Mr S Myers",390,60,W,3,11,0.345,,,,29,,31,,,,,,,,,,"Not all nearest allocated",1,,,1,,1,,,1,1,1,1,1,1,,,,
3912,Primary,"Whinmoor St Pauls Church of England Primary School (Voluntary Aided)","Whinmoor Crescent",,Leeds,"LS14 1EG",435417,437957,"0113 265 7250",secretary@whinmoorstpauls.co.uk,http://www.whinmoorstpauls.co.uk,"Mrs S Storey",209,30,E,3,11,,,,,,,,,,,,,,,,,,1,1,,1,,1,,1,1,,1,,,1,,,1,
2456,Primary,"White Laith Primary School","Naburn Drive",,Leeds,"LS14 2BL",436059,437348,"0113 293 0280",secretary@whitelaith.leeds.sch.uk,http://www.whitelaith.leeds.sch.uk,"Mrs N Sheerin",218,30,E,3,11,0.386,0.676,1,,17,,5,7,,,,,,,,,,,1,,1,,1,1,1,,1,1,,,1,,,1,
2494,Primary,"Whitecote Primary School","Wellington Grove",,Leeds,"LS13 2LQ",424627,435759,"0113 216 4800",office@whitecote.co.uk,http://www.whitecote.leeds.sch.uk,"Ms K Allan",385,60,W,3,11,,,,,,,,,,,,,,,,,,1,1,,1,,1,,1,1,1,1,,,1,,,1,
2466,Primary,"Whitkirk Primary School (Foundation)","Templegate Walk",,Leeds,"LS15 0EU",435969,433154,"0113 260 6203",headteacher@whitkirk.leeds.sch.uk,http://www.whitkirk.org/,"Mr S Clark",370,60,E,4,11,0.286,1.228,,,32,,6,22,,,,,,,,,,,,,1,,,1,1,1,,1,1,1,1,,,1,
2390,Primary,"Wigton Moor Primary School","Barfield Crescent",,Leeds,"LS17 8RU",431854,440111,"0113 268 2341",office@wigtonmoor.leeds.sch.uk,http://www.wigtonmoor.leeds.sch.uk,"Mrs Bown",408,60,NE,4,11,0.73,,,,25,,35,,,,,,,,,,"Not all nearest allocated",,,,1,,,,1,1,,1,,,1,,,1,
2471,Primary,"Windmill Primary School","Windmill Road",,Leeds,"LS10 3HQ",431035,429587,"0113 271 2115",sally.sumpner@musicfederation.co.uk,http://www.musicfederation.co.uk,"Mrs S Sumpner",362,60,S,4,11,0.441,0.41,1,,23,,35,1,,,,,,,,,,,1,1,1,,1,1,,1,1,1,,,1,,,1,
4105,Secondary,"Woodkirk Academy","Rein Road",Tingley,Leeds,"WF3 1JQ",427441,425968,"0113 887 3600",headteacher@woodkirk.leeds.sch.uk,http://www.woodkirkacademy.co.uk,"Mr J B White",1795,300,S,11,18,,,,,,,,,,,,,,,,,,,,,1,1,,,,,,,,,1,,,,
2008,Primary,"Woodlands Primary Academy","Foundry Place",,Leeds,"LS9 6DA",432643,435163,"0113 240 7382",headteacher@woodlands.leeds.sch.uk,http://www.woodlands.coop,"Mr C Walton",420,60,E,3,11,0.341,0.492,,,27,,17,16,,,,,,,,,,1,1,,,,1,,1,,,1,1,1,1,,,,
2314,Primary,"Woodlesford Primary School","Church Street",Woodlesford,Leeds,"LS26 8RD",436497,429133,"0113 393 4416",info@woodlesford.leeds.sch.uk,http://www.woodlesford.leeds.sch.uk,"Robin Scott",425,60,S,3,11,0.496,1.074,,,24,,21,15,,,,,,,,,,1,,,1,1,1,,1,1,1,1,,1,1,,,1,
2457,Primary,"Wykebeck Primary School","Brander Street",,Leeds,"LS9 6QH",433640,434593,"0113 249 1525",amy.lavin@wykebeckprimary.co.uk,http://www.wykebeck.leeds.sch.uk/,"Ms J Millington",349,60,E,3,11,,,,,,,,,,,,,,,,,,1,1,,1,,1,,1,1,1,1,,,1,,,1,
2358,Infant,"Yeadon Westfield Infant School","Westifield Grove",Yeadon,Leeds,"LS19 7NQ",419745,440827,"0113 250 5449",head@westfieldinfants.co.uk,http://westfieldinfants.co.uk,"Ms Lowry",180,60,NW,3,7,0.347,0.78,2,,24,,26,8,,,,,,,,,,1,,,1,,1,1,1,1,,,1,,1,,,1,
2324,Junior,"Yeadon Westfield Junior School","New Road",Yeadon,Leeds,"LS19 7HQ",419894,440961,"0113 250 3395",office@yeadonwestfieldjuniorschool.co.uk,http://www.yeadonwestfield-jun.leeds.sch.uk,"Ms Piotrowicz",215,60,NW,7,11,,,,,,,,,,,,,,,,,,1,,,1,,,1,1,1,1,1,,1,1,,,1,
